Store Name,number,streetaddr,strcity,strstate,zipcode,phone-number,Longitude,Latitude
"Walmart Supercenter - Anchorage ,",#2070,3101 A St,Anchorage,AK,99503,(907) 563-5900,-149.881507,61.192165
"Walmart Supercenter - Anchorage (S) ,",#2071,8900 Old Seward Hwy,Anchorage,AK,99515,(907) 344-5300,-149.868161,61.140234
"Walmart Supercenter - Eagle River ,",#2188,18600 Eagle River Rd,Eagle River,AK,99577,(907) 694-9780,-149.535324,61.30978
"Walmart Supercenter - Fairbanks ,",#2722,537 Johansen Expressway,Fairbanks,AK,99701,(907) 451-9900,-147.688971,64.857356
"Walmart Supercenter - Juneau,",#3814,6525 Glacier Hwy,Juneau,AK,99801,(907) 789-5000,-134.515207,58.358498
"Walmart Supercenter - Kenai,",#4474,10096 Kenai Spur,Kenai,AK,99611,(907) 395-0971,-151.226631,60.564167
"Walmart - Ketchikan,",#2710,4230 Don King Rd,Ketchikan,AK,99901,(907) 247-2156,-131.720364,55.376113
"Walmart - Kodiak,",#2711,2911 Mill Bay Rd,Kodiak,AK,99615,(907) 481-1670,-152.36445,57.811389
"Walmart Supercenter - Wasilla,",#2074,1350 S Seward Meridian Pkwy,Wasilla,AK,99654,(907) 376-9780,-149.362998,61.568711
"Walmart Supercenter - Andalusia , Gas/Diesel,",#1091,1991 M. L. King Jr. Expressway,Andalusia,AL,36420,(334) 222-6561,-86.445471,31.320815
"Wm Nbrhd Mkt - Center Point ,",#5100,1916 Center Point Rd,Birmingham,AL,35215,(205) 520-0269,-86.684336,33.637771
"Walmart Supercenter - Birmingham,",#1158,2473 Hackworth Rd,Birmingham,AL,35005,(205) 798-9721,-86.924324,33.580015
"Walmart Supercenter - Chelsea,",#4330,16077 Hwy 280,Chelsea,AL,35043,(205) 678-2222,-86.619256,33.348741
"Wm Nbrhd Mkt - Decatur,",#2488,1203 6th Ave SE,Decatur,AL,35601,(256) 822-6366,-86.980726,34.589341
"Walmart Supercenter - Fairhope,",#4333,10040 County Rd 48,Fairhope,AL,36533,(251) 990-9006,-87.851335,30.523594
"Wm Nbrhd Mkt - Florence,",#4188,1410 Florence Blvd,Florence,AL,35630,(256) 712-6195,-87.657927,34.818559
"Walmart Supercenter - Florence,",#4187,2701 Cloverdale Rd,Florence,AL,35633,(256) 712-6410,-87.686623,34.841215
"Wm Nbrhd Mkt - Helena,",#4189,335 Helena Market Pl,Helena,AL,35080,(205) 624-1640.,-86.851306,33.27955
"Wm Nbrhd Mkt - Hoover,",#3184,3320 Lorna Rd,Hoover,AL,35216,(205) 909-4306,-86.798124,33.393198
"Walmart Supercenter - Hueytown,",#4497,1007 Red Farmer Dr,Hueytown,AL,35023,(205) 744-9997,-86.968613,33.458664
"Walmart Supercenter - Huntsville,",#5703,8580 Hwy 72,Madison,AL,35758,(256) 716-6951,-86.773289,34.749878
"Wm Nbrhd Mkt - Mobile , Gas/Diesel,",#5098,1970 South University Blvd,Mobile,AL,36609,(251) 666-3373,-88.161798,30.649465
"Walmart Supercenter - Mobile,",#0866,5245 Rangeline Service Rd,Mobile,AL,36619,(251) 666-7972,-88.162626,30.594576
"Wm Nbrhd Mkt - Mobile (Hillcrest) ,",#4657,6350 Cottage Hill Rd,Mobile,AL,36609,(251) 661-1717,-88.189511,30.640966
"Wm Nbrhd Mkt - Mobile,",#4648,6575 Airport Blvd,Mobile,AL,36608,(2510 370-9845,-88.194899,30.679921
"Wm Nbrhd Mkt - Orange Beach,",#5653,25241 Perdido Blvd,Orange Beach,AL,36561,(251) 974-1810,-87.593859,30.268534
"Wm Nbrhd Mkt - Vestavia Hills ,",#4580,1300 Montgomery Hwy,Vestavia Hills,AL,35216,(205) 822-9994,-86.791267,33.428893
"Walmart Supercenter - Beebe,",#4168,2003 W Center St,Beebe,AR,72012,(501) 882-1017,-91.906522,35.066205
"Wm Nbrhd Mkt - Bentonville ,",#2741,3510 SE 14th St,Bentonville,AR,72712,(479) 621-6450,-94.170857,36.354931
"Walmart Supercenter - Blytheville,",#0062,3700 E Main St; I-55 Exit 67,Blytheville,AR,72315,(870) 763-0440,-89.87208,35.930064
"Wm Nbrhd Mkt - Conway,",#3168,2550 Prince St,Conway,AR,72034,(501) 205-7262,-92.464225,35.092181
"Wm Nbrhd Mkt - Fayetteville ,",#2745,2690 East Citizens Dr,Fayetteville,AR,72703,(479) 571-6670,-94.123054,36.089114
"Walmart Express - University of Arkansas,",#2997,616 N Garland Ave,Fayetteville,AR,72701,(479) 443-1588,-94.174862,36.072443
"Walmart Express - Gentry,",#3032,905 S Gentry Blvd,Gentry,AR,72734,(479) 736-1365,-94.485234,36.259365
"Walmart Express - Gravette,",#3033,800 1st Ave SE,Gravette,AR,72736,(479) 787-9745,-94.452682,36.414841
"Walmart Supercenter - Little Rock (SW),",#0126,2700 S Shackleford Rd,Little Rock,AR,72205,(501) 223-0604,-92.39756,34.728968
"Wm Nbrhd Mkt - Maumelle ,",#5783,117 Audubon Dr,Maumelle,AR,72113,(501) 851-6673,-92.404937,34.851295
"Walmart Supercenter - North Little Rock , Gas/Diesel,",#4460,12001 Maumelle Blvd,North Little Rock,AR,72113,(501) 851-2798,-92.393695,34.831608
"Walmart Express - Prairie Grove, Gas,",#3034,881 W Buchanan,Prairie Grove,AR,72753,(479) 846-6900,-94.33398,35.971157
"Wm Nbrhd Mkt - Rogers , Gas/Diesel,",#3479,1819 South 8th St.,Rogers,AR,72756,(479) 633-0772,-94.124812,36.313263
"Walmart Clinic Pharmacy - Rogers,",#5822,2708 Rife Dr,Rogers,AR,72758,(479) 636-4101,-94.183167,36.310128
"Wm Nbrhd Mkt - Searcy,",#2431,1330 W Beebe Capps Expwy,Searcy,AR,72143,(501) 203-2010,-91.750864,35.245507
"Wm Nbrhd Mkt - Sherwood ,",#2743,8801 Hwy 107,Sherwood,AR,72120,(501) 833-3127,-92.232685,34.385219
"Walmart Supercenter - Sherwood , Gas/Diesel,",#0007,9053 Hwy 107,Sherwood,AR,72120,(501) 833-0972,-92.235819,34.837889
"Wm Nbrhd Mkt - Springdale ,",#5738,3553 E Robinson Ave,Springdale,AR,72764,(479) 750-4683,-94.09239,36.164267
"Wm Nbrhd Mkt - Springdale ,",#2742,1375 Market Square Dr,Springdale,AR,72762,(479) 750-7853,-94.162598,36.173767
"Walmart Supercenter - Cave Creek,",#5835,34399 N Cave Creek Rd,Cave Creek,AZ,85331,(480) 296-7398,-111.963038,33.796648
"Wm Nbrhd Mkt - Chandler,",#2657,6085 W Chandler Blvd,Chandler,AZ,85226,(480) 477-0212,-111.944652,33.305269
"Walmart Supercenter - El Mirage,",#4336,12900 West Thunderbird,El Mirage,AZ,85335,(623) 583-1321,-112.337496,33.610102
"Walmart Supercenter - Gilbert ,",#3861,5290 S Power Rd,Gilbert,AZ,85295,(480) 988-0012,-111.742072,33.30481
"Wm Nbrhd Mkt - Glendale ,",#3315,4230 West Union Hills Dr,Glendale,AZ,85308,(623) 869-0779,-112.15018,33.6558
"Wm Nbrhd Mkt - Glendale ,",#3844,5137 W Olive Dr,Glendale,AZ,85302,(623) 939-4237,-112.171683,33.568833
"Wm Nbrhd Mkt - Glendale ,",#4233,6550 West Happy Valley Rd,Glendale,AZ,85310,(623) 566-9754,-112.202404,33.712872
"Wm Nbrhd Mkt - Glendale ,",#3845,6645 West Peoria,Glendale,AZ,85301,(623) 773-2947,-112.201434,33.58083
"Wm Nbrhd Mkt - Glendale ,",#3314,7450 West Glendale Ave,Glendale,AZ,85303,(623) 915-2632,-112.218873,33.538806
"Wm Nbrhd Mkt - Goodyear (Indian) ,",#3604,14200 West Indian School Rd,Goodyear,AZ,85338,(623) 935-7007,-112.364171,33.486762
"Walmart Supercenter - Maricopa,",#4430,41650 W Maricopa Casa Grande,Maricopa,AZ,85238,(520) 568-0846,-112.01452,33.038222
"Walmart Supercenter - Mesa ,",#3833,1606 South Signal Butte Rd,Mesa,AZ,85206,(480) 358-1122,-111.600213,33.383775
"Wm Nbrhd Mkt - Mesa (Baseline) ,",#5304,1916 S Lindsay Rd,Mesa,AZ,85204,(480) 892-6085,-111.772122,33.38027
"Walmart Supercenter - Mesa (Country Club) ,",#3799,240 West Baseline Rd,Mesa,AZ,85210,(480) 668-9501,-111.836646,33.379807
"Wm Nbrhd Mkt - Mesa ,",#3846,2725 East Mckellips,Mesa,AZ,85213,(480) 733-1679,-111.772058,33.450018
"Wm Nbrhd Mkt - Mesa (Higley) ,",#5257,5122 East University Dr,Mesa,AZ,85205,(480) 832-9484,-111.720556,33.423455
"Wm Nbrhd Mkt - Mesa (Horne) ,",#5332,730 East Mckellips Rd,Mesa,AZ,85203,(480) 964-2347,-111.814295,33.452079
"Wm Nbrhd Mkt - Mesa ,",#5349,8335 E. Guadalupe Rd,Mesa,AZ,85212,(480) 357-4137,-111.654285,33.363419
"Walmart Supercenter - Oro Valley,",#3379,2150 East Tangerine Rd,Oro Valley,AZ,85737,(520) 544-0016,-110.940892,32.424867
"Wm Nbrhd Mkt - Oro Valley ,",#4264,7951 N Oracle Rd,Oro Valley,AZ,85704,(520) 469-9567,-110.976525,32.350743
"Walmart Supercenter - Parker ,",#4543,100 Riverside Dr,Parker,AZ,85344,(928) 669-2161,-114.276833,34.156184
"Walmart Supercenter - Peoria (Lake Pleasant) ,",#3896,21655 North Lake Pleasant Pkwy,Peoria,AZ,85382,(623) 537-0809,-112.277159,33.679777
"Wm Nbrhd Mkt - Phoenix (24th),",#4293,2435 East Baseline Rd,Phoenix,AZ,85042,(602) 232-2115,-112.029095,33.37662
"Walmart Supercenter - Phoenix ,",#4232,4747 East Cactus Rd,Phoenix,AZ,85032,(602) 404-3712,-111.978784,33.596729
"Walmart Supercenter - Phoenix (Laveen) ,",#3771,6150 South 35th Ave,Phoenix,AZ,85041,(602) 243-8506,-112.135626,33.390424
"Walmart Supercenter - Phoenix ,",#3316,8921 West Thomas Rd,Phoenix,AZ,85037,(623) 936-0240,-112.253836,33.478796
"Walmart Supercenter - Prescott Valley,",#3730,3450 Glassford Hill Rd,Prescott Valley,AZ,86314,(928) 499-3136,-112.340076,34.592304
"Walmart Supercenter - Queen Creek,",#3751,1725 West Hunt Hwy,Queen Creek,AZ,85242,(480) 677-2149,-111.583983,33.177048
"Walmart Supercenter - Queen Creek (N),",#4451,21055 South Rittenhouse Rd,Queen Creek,AZ,85242,(480) 457-1158,-111.630178,33.250541
"Walmart Supercenter - Safford,",#1149,755 S. 20th Ave,Safford,AZ,85546,(928) 428-7990,-109.732722,32.833136
"Walmart Supercenter - San Luis,",#4337,1613 North Main St,San Luis,AZ,85349,(928) 722-7278,-114.785,32.508016
"Walmart supercenter - Surprise,",#5429,14111 N Prasada Gateway Ave,Surprise,AZ,85388,(623) 282-3208,-112.42075,33.611071
"Wm Nbrhd Mkt - Surprise ,",#4218,15431 West Greenway Rd,Surprise,AZ,85374,(623) 584-0189,-112.392387,33.623058
"Walmart Express - Arizona State University,",#4060,671 E Apache Blvd,Tempe,AZ,85281,(480) 967-2237,-111.929201,33.414428
"Walmart Supercenter - Tempe ,",#5768,800 E Southern,Tempe,AZ,85282,(480) 966-0264,-111.928466,33.393357
"Wm Nbrhd Mkt - Tucson,",#3049,2550 S Kolb Rd,Tucson,AZ,85710,(520) 329-6471,-110.841719,32.193078
"Walmart - Tucson,",#5799,2711 S Houghton Rd,Tucson,AZ,85730,(520) 918-0087,-110.770789,32.190771
"Wm Nbrhd Mkt - Tucson (Cardinal) ,",#3377,2823 West Valencia Rd,Tucson,AZ,85746,(520) 908-2556,-111.026149,32.132949
"Walmart Supercenter - Tucson,",#3884,3435 E Broadway Blvd; I-10 Exit 258,Tucson,AZ,85716,(520) 917-1655,-110.918494,32.222538
"Wm Nbrhd Mkt - Tucson (Alvernon) ,",#3357,3925 East Grant Rd,Tucson,AZ,85712,(520) 327-0085,-110.908934,32.2513
"Wm Nbrhd Mkt - Tucson ,",#4603,5500 E 22nd St,Tucson,AZ,85711,(520) 745-0267,-110.874289,32.206479
"Wm Nbrhd Mkt - Tucson,",#3143,8640 E Broadway Blvd,Tucson,AZ,85710,(520) 329-6870,-110.807944,32.220767
"Walmart Supercenter - Tucson,",#5858,9260 S Houghton Rd,Tucson,AZ,85747,(520) 329-6674,-110.771518,32.085043
"Walmart Supercenter - American Canyon ,",#1651,7011 Main St,American Canyon,CA,94503,(707) 557-4393,-122.254149,38.184406
"Wm Nbrhd Mkt - Anaheim,",#3101,121 N Beach Blvd,Anaheim,CA,92801,(714) 822-3179,-117.994102,33.832609
"Walmart Supercenter - Anaheim ,",#5930,88 E Orangethorpe Ave,Anaheim,CA,92801,(714) 447-6751,-117.918879,33.859075
"Walmart Supercenter - Atwater,",#5890,800 Commerce Ave,Atwater,CA,95301,(209) 676-3087,-120.609274,37.340527
"Walmart Supercenter - Bakersfield,",#5134,5075 Gosford Rd,Bakersfield,CA,93313,(661) 282-3099,-119.094421,35.308867
"Walmart Supercenter - Bakersfield,",#1574,6225 Colony St,Bakersfield,CA,93307,(661) 398-7297,-119.029263,35.298027
"Walmart Supercenter - Beaumont ,",#5156,1540 East 2nd St,Beaumont,CA,92223,(951) 845-1529,-116.9521,33.9243
"Wm Nbrhd Mkt - Bell Gardens,",#5688,6820 Eastern Ave,Bell Gardens,CA,90201,(323) 282-2503,-118.163675,33.971059
"Walmart Supercenter - Brawley,",#5335,250 Wildcat Dr,Brawley,CA,92227,(760) 351-0186,-115.546748,32.962429
"Wm Nbrhd Mkt - Camarillo,",#5664,275 W Ventura Blvd,Camarillo,CA,93010,(805) 233-3378,-119.095274,34.220759
"Wm Nbrhd Mkt - Carmichael,",#5981,6005 Madison Ave; I-80 Exit 96,Carmichael,CA,95608,(916) 534-1157,-121.325462,38.661518
"Walmart Supercenter - Citrus Heights,",#3712,7010 Auburn Blvd,Citrus Heights,CA,95621,(916) 729-8077,-121.295299,38.690438
"Walmart Supercenter - Clovis,",#5337,1185 Herndon Ave,Clovis,CA,93611,(559) 321-0067,-119.695912,36.838806
"Wm Nbrhd Mkt - Clovis,",#5633,1830 Shaw Ave,Clovis,CA,93611,(559) 862-2718,-119.680902,36.807426
"Walmart Supercenter - Delano,",#5215,530 Woollomes Ave,Delano,CA,93215,(661) 370-4061,-119.244414,35.74691
"Wm Nbrhd Mkt - El Cajon,",#4169,300 N 2nd St; I-8 Exit 19,El Cajon,CA,92021,(619) 219-5246,-116.936099,32.798004
"Walmart Supercenter - Elk Grove,",#5848,10075 Bruceville Rd,Elk Grove,CA,95757,(916) 585-7344,-121.416431,38.39267
"Wm Nbrhd Mkt - Elk Grove,",#5683,8455 Elk Grove Blvd,Elk Grove,CA,95758,(916) 509-3170,-121.392028,38.409567
"Wm Nbrhd Mkt - Escondido,",#3084,1266 E Valley Pkwy,Escondido,CA,92027,(760) 871-6760,-117.06567,33.131107
"Walmart - Escondido,",#5996,1330 E Grand Ave,Escondido,CA,92027,(760) 871-6622,-117.06265,33.129641
"Walmart Supercenter - Eureka,",#5629,3300 Broadway Bashore Mall,Eureka,CA,95501,(707) 832-5269,-124.190455,40.779647
"Wm Nbrhd Mkt - Garden Grove,",#5639,10912 Katella Ave; I-5 Exit 109,Garden Grove,CA,92840,(714) 620-3822,-117.942214,33.802975
"Wm Nbrhd Mkt - Hawiian Gardens,",#4173,12120 Carson St,Hawiian Gardens,CA,90716,(562) 384-4056,-118.073524,33.830423
"Wm Nbrhd Mkt - Hawthorne,",#5604,14441 Inglewood Ave,Hawthorne,CA,90260,(424) 336-2212,-118.362099,33.900227
"Walmart Supercenter - Highland,",#1914,4210 East Highland Ave,Highland,CA,92346,(909) 425-8846,-117.195187,34.136938
"Wm Nbrhd Mkt - Huntington Beach,",#5601,21132 Beach Blvd,Huntington Beach,CA,92646,(714) 274-4484,-117.987406,33.655354
"Walmart Supercenter - Irvine,",#5687,71 Technology Dr; I-5 Exit 94,Irvine,CA,92618,(949) 623-6587,-117.741385,33.657427
"Walmart Supercenter - Kerman,",#5701,14061 W Whitesbridge Ave,Kerman,CA,93630,(559) 846-1200,-120.045352,36.734595
"Walmart Supercenter - La Habra,",#5641,1000 E Imperial Hwy,La Habra,CA,90631,(714) 869-0530,-117.934836,33.916761
"Wm Nbrhd Mkt - La Mesa,",#5684,8820 Grossmont Blvd,La Mesa,CA,91942,(619) 403-5392,-117.006823,32.773552
"Wm Nbrhd Mkt - La Mirada,",#5661,14865 Telegraph Rd,La Mirada,CA,90638,(562) 567-6488,-118.013693,33.918274
"Wm Nbrhd Mkt - La Palma,",#3099,5420 La Palma Ave,La Palma,CA,90623,(714) 822-3152,-118.038386,33.846188
"Wm Nbrhd Mkt - La Puente,",#3133,1425 N Hacienda Blvd,La Puente,CA,91744,(626) 251-1877,-117.948942,34.046676
"Wm Nbrhd Mkt - Los Angeles,",#3086,701 W Cesar E Chavez Ave,Los Angeles,CA,90012,(213) 337-0172,-118.243835,34.061485
"Walmart Supercenter - Marina ,",#4488,150 Beach Rd,Marina,CA,93933,(831) 883-9138,-121.800565,36.69359
"Wm Nbrhd Mkt - Modesto,",#3046,1421 Coffee Rd,Modesto,CA,95355,(209) 222-5632,-120.976622,37.664054
"Walmart Supercenter - Modesto ,",#5710,3848 Mchenry Ave,Modesto,CA,95350,(209) 342-0949,-120.994174,37.694531
"Walmart Supercenter - Morgan Hill,",#5766,170 Cochrane Plaza,Morgan Hill,CA,95037,(408) 779-8172,-121.655522,37.149811
"Wm Nbrhd Mkt - Oceanside,",#5637,1046 Mission Ave; I-5 Exit 53,Oceanside,CA,92054,(760) 696-9906,-117.375615,33.198562
"Walmart Supercenter - Orangevale,",#4309,8961 Greenback Lane,Orangevale,CA,95662,(916) 989-5800,-121.22328,38.679118
"Walmart Supercenter - Oxnard,",#3087,2701 Saviers Rd,Oxnard,CA,93033,(805) 200-5224,-119.178066,34.17473
"Wm Nbrhd Mkt - Oxnard,",#5643,421 W Esplanade Dr; Hwy 101 Exit 61,Oxnard,CA,93036,(805) 604-2082,-119.17934,34.236503
"Walmart Supercenter - Palm Desert,",#5096,34500 Monterey Ave,Palm Desert,CA,92260,(760) 328-4375,-116.386207,33.798088
"WM Nbrhd Mkt - Palm Desert,",#3026,72314 Hwy 111,Palm Desert,CA,92260,(760) 469-3428,-116.401626,33.727429
"Walmart Supercenter - Patterson,",#5843,1030 Sperry Ave,Patterson,CA,95363,(209) 895-4407,-121.142528,37.464052
"Wm Nbrhd Mkt - Pleasanton,",#5611,3112 Santa Rita Rd,Pleasanton,CA,94566,(925) 398-6369,-121.877558,37.689969
"Wm Nbrhd Mkt - Rialto,",#3131,300 W Baseline Rd,Rialto,CA,92376,(909) 546-3019,-117.366289,34.121638
"Walmart Supercenter - Rocklin,",#3587,5454 Crossings Dr; I-80 Exit 109,Rocklin,CA,95661,(916) 783-8281,-121.203643,38.80177
"Wm Nbrhd Mkt - Rocklin,",#3090,5609 Pacific St,Rocklin,CA,95677,(916) 824-0104,-121.240115,38.783624
"Wm Nbrhd Mkt - Sacramento,",#5982,2700 Marconi Ave,Sacramento,CA,95821,(916) 576-6657,-121.398873,38.617419
"Walmart Supercenter - Sacramento ,",#5192,5821 Antelope N Rd,Sacramento,CA,95843,(916) 729-6162,-121.330824,38.703544
"Walmart Supercenter - Salinas ,",#2458,1800 N Main St,Salinas,CA,93907,(831) 751-0231,-121.650778,36.7182
"Wm Nbrhd Mkt - San Bernardino,",#5690,2045 E Highland Ave,San Bernardino,CA,92404,(909) 863-3050,-117.2419052,34.1349945
"Wm Nbrhd Mkt - Imperial Beach,",#5638,2121 Imperial Ave; I-5 Exit 14,San Diego,CA,92102,(619) 849-5729,-117.144594,32.706198
"Walmart Supercenter - San Jacinto,",#5425,1861 South San Jacinto Ave,San Jacinto,CA,92583,(951) 487-1492,-116.956449,33.767929
"Wm Nbrhd Mkt - San Jose,",#3025,1600 Saratoga Ave,San Jose,CA,95129,(408) 796-3823,-121.988012,37.290992
"Wm Nbrhd Mkt - San Jose,",#3023,4055 Evergreen Village Square,San Jose,CA,95135,(408) 826-0338,-121.772553,37.313406
"Walmart Supercenter - San Jose,",#5884,5095 Almaden Expy,San Jose,CA,95118,(408) 600-3072,-121.879593,37.255593
"Walmart - San Marcos,",#3494,732 Center Dr CA-78 Exit 15 Nordahl,San Marcos,CA,92069,(760) 233-8009,-117.122597,33.134891
"Walmart Supercenter - Sanger,",#4238,2761 Jensen Ave,Sanger,CA,93657,(559) 875-4268,-119.576351,36.70575
"Wm Nbrhd Mkt - Santa Clara,",#3123,3255 Mission College Blvd,Santa Clara,CA,95054,(408) 961-3599,-121.985579,37.389119
"Wm Nbrhd Mkt - Santa Maria,",#5658,2240 S Bradley Rd,Santa Maria,CA,93454,(805) 348-4951,-120.419479,34.918919
"Wm Nbrhd Mkt - Santa Maria,",#5659,500 S Blosser Rd,Santa Maria,CA,93458,(805) 863-9146,-120.453785,34.948556
"Walmart - Simi Valley ,",#5685,2801 E Cochran St,Simi Valley,CA,93065,(805) 416-5272,-118.739012,34.279985
"Wm Nbrhd Mkt - Stanton,",#4134,12840 Beach Blvd,Stanton,CA,90680,(714) 230-0126,-117.991891,33.774774
"Wm Nbrhd Mkt - Stockton,",#3022,1189 E March Lane,Stockton,CA,95210,(209) 235-0499,-121.292148,38.003558
"Wm Nbrhd Mkt -- Thousand Oaks,",#3179,512 Ventu Park Rd,Thousand Oaks,CA,91320,(805) 262-3406,-118.909985,34.186532
"Wm Nbrhd Mkt - Torrance,",#2226,19340 Hawthorne Blvd,Torrance,CA,90503,(310) 750-1983,-118.35364,33.855544
"Walmart - Torrance,",#5072,19503 South Normandie Ave,Torrance,CA,90501,(310) 782-6022,-118.301358,33.856663
"Walmart - Torrance,",#5874,22015 Hawthorne Blvd,Torrance,CA,90503,(310) 750-0179,-118.352685,33.827757
"Wm Nbrhd Mkt - Turlock,",#3047,2480 Geer Rd,Turlock,CA,95380,(209) 226-7000,-120.847441,37.515708
"Wm Nbrhd Mkt - Upland,",#5691,1445 E Foothill Blvd,Upland,CA,91786,(909) 942-4931,-117.629703,34.107467
"Wm Nbrhd Mkt - Vacaville,",#5007,2050 Nut Tree Rd,Vacaville,CA,95687,(707) 359-3258,-121.95113,38.350952
"Wm Nbrhd Mkt - Vacaville,",#5608,941 Alamao Dr,Vacaville,CA,95687,(707) 359-3180,-121.995369,38.344227
"Walmart - Ventura,",#3650,1739 S Victoria Ave,Ventura,CA,93003,(805) 665-5560,-119.21161,34.258337
"Wm Nbrhd Mkt - Visalia,",#5635,1320 N Demaree St,Visalia,CA,93291,(559) 429-3264,-119.33065,36.340221
"Walmart - Visalia,",#5956,3750 S Mooney Blvd,Visalia,CA,93277,(559) 802-4429,-119.311413,36.296031
"Walmart Supercenter - West Covina,",#5954,2753 E Eastland Center Dr; I-10 Exit 37,West Covina,CA,91791,(626) 332-4608,-117.887675,34.073286
"Walmart Supercenter - West Sacramento ,",#3652,755 Riverpoint Court,West Sacramento,CA,95605,(916) 373-2200,-121.550407,38.588138
"WM Nbrhd Mkt - Woodland,",#5606,1250 E Gibson Rd,Woodland,CA,95776,(530) 665-4306,-121.764208,38.661301
"WM Nbrhd Mkt - Woodland,",#4127,215 California St,Woodland,CA,95695,(530) 665-4638,-121.788547,38.681338
"Wm Nbrhd Mkt - Arvada,",#3020,14605 W 64th Ave,Arvada,CO,80004,(303) 209-7840,-105.163286,39.813996
"Wm Nbrhd Mkt - Aurora,",#4196,15240 E Liff Ave,Aurora,CO,80014,(303) 481-3904,-104.810914,39.674724
"Wm Nbrhd Mkt - Boulder,",#3096,2972 Iris Ave,Boulder,CO,80301,(303) 305-5397,-105.25594,40.036254
"Walmart Supercenter - Brighton ,",#4567,7101 E 128th Ave,Brighton,CO,80602,(303) 209-4339,-104.905925,39.930264
"Walmart Supercenter - Broomfield, Gas/Diesel,",#4288,4651 W 121st Ave,Broomfield,CO,80020,(303) 217-9374,-105.046286,39.915789
"Walmart Supercenter - Centennial,",#3313,10900 East Briarwood Ave,Centennial,CO,80112,(303) 706-0071,-104.861634,39.591425
"Wm Nbrhd Mkt - Centennial,",#3126,16746 E Smokey Hill Rd,Centennial,CO,80015,(3030 305-1110,-104.7933886,39.625883
"Wm Nbrhd Mkt - Colorado Springs,",#3082,1622 S Academy Blvd,Colorado Springs,CO,80916,(719) 244-9294,-104.757723,38.809764
"Wm Nbrhd Mkt - Colorado Springs,",#3176,1725 N Union Blvd,Colorado Springs,CO,80911,(719) 424-3385,-104.793827,38.857348
"Wm Nbrhd Mkt - Colorado Springs,",#3175,4142 Austin Bluffs Pkwy,Colorado Springs,CO,80918,(719) 244-9776,-104.754829,38.891446
"Wm Nbrhd Mkt - Colorado Springs,",#3083,665 N Murray Blvd,Colorado Springs,CO,80915,(719) 596-1294,-104.746982,38.842555
"Walmart Supercenter - Craig,",#4377,2000 West Victory Way,Craig,CO,81625,(970) 824-0340,-107.569542,40.512209
"Wm Nbrhd Mkt - Denver,",#3128,1442 S Parker Rd,Denver,CO,80231,(303) 481-0182,-104.890163,39.690496
"Wm Nbrhd Mkt - Denver,",#3021,2253 S Monaco Pkwy,Denver,CO,80222,(303) 323-4409,-104.912688,39.67491
"Walmart Supercenter - Denver,",#5676,2770 W Evans Ave,Denver,CO,80219,(303) 222-7043,-105.022014,39.678318
"Wm Nbrhd Mkt - Denver,",#3127,5141 Chambers Rd,Denver,CO,80239,(303) 218-6237,-104.811464,39.785558
"Walmart Supercenter - Elizabeth,",#4639,2100 Legacy Circle,Elizabeth,CO,80107,(303) 646-2599,-104.621845,39.360399
"Walmart Supercenter - Falcon,",#4335,11550 Meridian Market View,Falcon,CO,80831,(719) 522-2910,-104.611294,38.939062
"Walmart Supercenter - Lakeside,",#5957,5957 West 44th Ave,Lakeside,CO,80212,(303) 222-4455,-105.061256,39.778195
"Walmart Supercenter - Lakewood,",#4284,440 Wadsworth Blvd,Lakewood,CO,80226,(303) 205-0754,-105.080334,39.721317
"Wm Nbrhd Mkt - Littleton,",#3125,3615 W Bowles Ave,Littleton,CO,80123,(303) 218-4873,-105.031405,39.60762
"Walmart Supercenter - Loveland (N),",#1008,250 W 65th,Loveland,CO,80538,(970) 667-3331,-105.079419,40.456818
"Walmart Supercenter - Pueblo West,",#3382,78 North Mcculloch Blvd,Pueblo West,CO,81007,(719) 647-9861,-104.74092,38.336923
"Walmart Supercenter - Westminster (72nd),",#3824,7155 Sheridan Blvd.,Westminster,CO,80003,(303) 487-1412,-105.055161,39.825109
"Walmart Supercenter - Woodland Park ,",#3805,19600 East Hwy 24,Woodland Park,CO,80866,(719) 687-1065,-105.039364,38.972275
"Wm Nbrhd Mkt - Bristol,",#2305,325 Oakland St,Bristol,CT,06010,(860) 506-2263,-72.936999,41.687532
"Walmart - Waterbury,",#3548,910 Wolcott St,Waterbury,CT,06705,(203) 759-1000,-73.00494,41.564088
"Wm Nbrhd Mkt - West Hartford,",#2303,333 N Main St,West Hartford,CT,06117,(860) 509-1705,-72.747033,41.784416
"Walmart Supercenter - Washington,",#5968,5929 Georgia Ave NW,Washington,DC,20001,(202) 719-3770,-77.026987,38.961614
"Walmart Supercenter - Washington,",#5941,99 H St NW,Washington,DC,20001,(202) 719-2110,-77.01161,38.900469
"Walmart Supercenter - Middletown,",#3802,705 Middletown Warwick Rd,Middletown,DE,19709,(302) 449-1254,-75.73703,39.44531
"Walmart Supercenter - Avon Park,",#3887,1041 Hwy 27 N,Avon Park,FL,33825,(863) 453-4177,-81.51632,27.60897
"Wm Nbrhd Mkt - Boynton Beach,",#3011,9840 S Military Trail,Boynton Beach,FL,33436,(561) 509-2138,-80.120668,26.530025
"Wm Nbrhd Mkt - Brandon,",#5826,901 Lithia Pinecrest Rd,Brandon,FL,33511,(813) 261-0267,-82.270252,27.924811
"Wm Nbrhd Mkt - Cape Coral (S) ,",#5451,3920 Skyline Blvd,Cape Coral,FL,33914,(239) 540-2245,-81.991052,26.578863
"Wm Nbrhd Mkt - Cape Coral ,",#5453,505 Pine Island Rd Sw,Cape Coral,FL,33991,(239) 458-7530,-81.984876,26.649125
"Wm Nbrhd Mkt - Clearwater ,",#4667,1803 North Highland Ave,Clearwater,FL,33755,(727) 441-4320,-82.774456,27.987293
"WM Nbrhd Mkt - Clearwater,",#5670,2171 Gulf Bay Blvd,Clearwater,FL,33765,(727) 431-4900,-82.747179,27.960509
"Walmart Supercenter - Coconut Creek ,",#1916,5571 Hillsboro Blvd,Coconut Creek,FL,33073,(954) 426-6101,-80.200247,26.318128
"Wm Nbrhd Mkt - Coral Springs ,",#4380,10635 West Atlantic Blvd,Coral Springs,FL,33071,(954) 345-9513,-80.267282,26.241461
"Wm Nbrhd Mkt - Coral Springs ,",#4498,4650 University Dr,Coral Springs,FL,33067,(954) 753-7377,-80.251735,26.288091
"Walmart Supercenter - Crawfordville , Gas/Diesel,",#3307,35 Mike Steward Dr,Crawfordville,FL,32327,(850) 926-1560,-84.36259,30.21572
"Walmart Supercenter - Davie,",#2987,4301 S University Dr,Davie,FL,33328,(954) 331-3612,-80.253056,26.067358
"Wm Nbrhd Mkt - Holly Hill , Gas/Diesel,",#3862,1905 North Nova Rd,Daytona Beach,FL,32117,(636) 672-3835,-81.0672,29.248432
"Wm Nbrhd Mkt - Delray Beach,",#2406,3155 S Federal Hwy,Delray Beach,FL,33483,(561) 450-1853,-80.06086,26.499694
"Walmart Supercenter - Deltona,",#3310,101 Howland Blvd,Deltona,FL,32738,(407) 328-8052,-81.16513,28.87302
"WM Nbrhd Mkt - Dunedin,",#5876,2102 Main St,Dunedin,FL,34698,(727-431-0152,-82.750477,28.019994
"Wm Nbrhd Mkt - Fort Myers ,",#5321,9131 College Pkwy Ste 101,Fort Myers,FL,33919,(239) 267-2860,-81.906947,26.555678
"Walmart Supercenter - Gainesville,",#3877,1800 Ne 12th Ave,Gainesville,FL,32641,(352) 372-3191,-82.300567,29.663336
"Wm Nbrhd Mkt - Greenacres ,",#5758,3911 Jog Rd,Greenacres,FL,33463,(561) 964-6337,-80.14761,26.620798
"Walmart Supercenter - Greenacres,",#1436,6294 Forest Hill Blvd,Greenacres,FL,33415,(561) 966-3101,-80.142424,26.650277
"Wm Nbrhd Mkt - Gulf Breeze,",#5623,334 Gulf Breeze Pkwy,Gulf Breeze,FL,32561,(850) 733-5019,-87.169204,30.365282
"Wm Nbrhd Mkt - Hialeah,",#5945,400 W 9th St,Hialeah,FL,33012,(305) 507-2044,-80.27336,25.829893
"Walmart Supercenter - Hudson,",#5266,12610 Hwy 19,Hudson,FL,34667,(727) 861-0040,-82.697079,28.340605
"Walmart - Indian Harbor Beach ,",#0956,1001 East Eau Gallie Blvd,Indian Harbor Beach,FL,32937,(321) 777-5504,-80.581844,28.137322
"Wm Nbrhd Mkt - Jacksonville,",#5818,10550 Old Saint Augustine Rd; I-295 Exit 5,Jacksonville,FL,32257,(904) 380-8271,-81.609322,30.184931
"Wm Nbrhd Mkt - Jacksonville,",#5817,8011 Merrill Rd; I-295 Exit 46,Jacksonville,FL,32277,(904) 380-8325,-81.562019,30.353493
"Walmart Supercenter - Kissimmee (E) , Gas/Diesel,",#2881,1471 East Osceola Pkwy,Kissimmee,FL,34746,(407) 397-1125,-81.385954,28.342908
"Wm Nbrhd Mkt - Kissimmee,",#5846,3183 W Vine St,Kissimmee,FL,34741,(407) 452-0224,-81.435305,28.306156
"Wm Nbrhd Mkt - Lake Worth ,",#5759,6177 Jog Rd,Lake Worth,FL,33467,(561) 964-5008,-80.1485,26.5874
"Wm Nbrhd Mkt - Largo ,",#5831,13817 Walsingham Rd,Largo,FL,33774,(727) 593-9294,-82.830305,27.881402
"Walmart Supercenter - Largo,",#3372,2677 Roosevelt Blvd,Largo,FL,33760,(727) 431-5917,-82.726078,27.915443
"Wm Nbrhd Mkt - Largo,",#4141,9020 Ulmerton Rd,Largo,FL,33771,(727) 431-5016,-82.764568,27.893383
"Walmart Supercenter - Lauderdale Lakes,",#3625,3001 North State Rd #7,Lauderdale Lakes,FL,33313,(954) 733-7473,-80.20347,26.16359
"Walmart Supercenter - Lecanto,",#5772,1936 N Lecanto Hwy,Lecanto,FL,34461,(352) 228-6000,-82.486664,28.89066
"Walmart Supercenter - Lutz ,",#0988,1575 Land O'lakes Blvd,Lutz,FL,33548,(813) 949-4238,-82.46708,28.182888
"Walmart Supercenter - Lynn Haven , Gas/Diesel,",#1032,2101 S Hwy 77,Lynn Haven,FL,32440,(850) 265-2626,-85.64643,30.22647
"Wm Nbrhd Mkt - Melbourne ,",#5366,3550 South Babcock Rd,Melbourne,FL,32901,(321) 723-8988,-80.622631,28.055312
"Wm Nbrhd Mkt - Melbourne , Gas/Diesel,",#5365,3950 Wickham Rd North,Melbourne,FL,32935,(321) 254-7875,-80.673369,28.17136
"Walmart Supercenter - Miami Gardens,",#3311,19501 Northwest 27th Ave,Miami Gardens,FL,33056,(305) 622-6664,-80.244466,25.952588
"Walmart Supercenter - Miami,",#5854,8400 Coral Way,Miami,FL,33155,(305) 351-0725 (NOP),-80.332786,25.746669
"Walmart Supercenter - Middleburg , Gas/Diesel,",#3308,1580 Brannan Field Rd,Middleburg,FL,32068,(904) 214-9411,-81.832379,30.105763
"Wm Nbrhd Mkt - Middleburg,",#5820,2570 CR 220,Middleburg,FL,32068,(904) 406-6013,-81.85733,30.087391
"Wm Nbrhd Mkt - Naples ,",#4354,5010 Airport Pulling Rd N,Naples,FL,34105,(239) 213-1183,-81.767012,26.20728
"Walmart Supercenter - Naples ,",#3417,6650 Collier Blvd,Naples,FL,34114,(239) 417-1252,-81.698211,26.056415
"Walmart Supercenter - Navarre , Gas/Diesel,",#3439,9360 Navarre Pkwy,Navarre,FL,32566,(850) 939-3998,-86.83076,30.411326
"Walmart Supercenter - Niceville,",#5845,1300 E John Sims Pkwy,Niceville,FL,32578,(850) 389-3013,-86.461905,30.516429
"Walmart Supercenter - North Port , Gas/Diesel,",#3387,17000 Tamiami Trail,North Port,FL,34287,(941) 423-5266,-82.216571,27.035628
"Walmart - Ocala,",#4368,34 Bahia Ave,Ocala,FL,34472,(352) 537-3095,-82.020651,29.11738
"Wm Nbrhd Mkt - Orlando,",#4160,1101 S Goldwyn,Orlando,FL,32805,(407) 563-9069,-81.4179,28.528273
"Wm Nbrhd Mkt - Orlando , Gas/Diesel,",#5179,201 South Chickasaw Trail,Orlando,FL,32825,(407) 380-9971,-81.276446,28.540323
"Wm Nbrhd Mkt - Orlando,",#3162,2715 S Orange Ave,Orlando,FL,32806,(407) 241-4080,-81.3758,28.511889
"Walmart Supercenter - Orlando,",#4588,3101 West Princeton St,Orlando,FL,32808,(321) 354-2096,-81.418404,28.571386
"Wm Nbrhd Mkt - Orlando ,",#3817,433 South Avalon Park Blvd,Orlando,FL,32828,(407) 207-0071,-81.149461,28.537044
"Wm Nbrhd Mkt - Orlando,",#4142,4520 S Semoran Blvd,Orlando,FL,32822,(407) 563-9167,-81.31167,28.497662
"Wm Nbrhd Mkt - Orlando ,",#4211,5559 Clarcona-ocoee Rd,Orlando,FL,32810,(407) 294-7276,-81.454294,28.612015
"Walmart Supercenter - Orlando,",#5871,5734 S Orange Blossom Trail,Orlando,FL,32809,(321) 247-4817,-81.398421,28.475059
"Walmart Supercenter - Orlando,",#3782,5991 New Goldenrod Rd,Orlando,FL,32822,(407) 382-8880,-81.287896,28.473884
"Wm Nbrhd Mkt - Orlando ,",#3617,600 South Alafaya Trail,Orlando,FL,32828,(407) 380-0384,-81.208261,28.536366
"Wm Nbrhd Mkt - Orlando ,",#4425,7818 Colonial West Dr,Orlando,FL,32818,(407) 522-4552,-81.490819,28.550367
"Wm Nbrhd Mkt - Orlando,",#2499,8801 Conroy Windermere Rd,Orlando,FL,32835,(407) 605-4001,-81.507022,28.495061
"Walmart Supercenter - Orlando,",#4332,8990 Turkey Lake Rd,Orlando,FL,32819,(407) 351-2229,-81.476283,28.441144
"Walmart Pharmacy/Clinic - Orlando,",#5997,9600 Parksouth Ct,Orlando,FL,32809,(407) 855-4750,-81.41481,28.42804
"Wm Nbrhd Mkt - Oviedo , Gas/Diesel,",#5106,4255 Alafaya Trail,Oviedo,FL,32765,(407) 359-6707,-81.208376,28.613395
"Walmart Supercenter - Oviedo,",#5894,5511 Deep Lake Rd,Oviedo,FL,32765,(407) 618-5013,-81.260878,28.617023
"Walmart Supercenter - Palmetto , Gas/Diesel,",#3370,508 10th St E,Palmetto,FL,34221,(941) 723-2199,-82.559399,27.521541
"Walmart Supercenter - Panama City Beach,",#3119,15495 Panama City Beach Pkwy,Panama City Beach,FL,32413,(850) 708-6968,-85.866497,30.217923
"Walmart Supercenter - Pensacola,",#3785,501 North Navy Blvd,Pensacola,FL,32507,(850) 453-6311,-87.278972,30.395852
"Wm Nbrhd Mkt - Pinellas Park ,",#4669,6900 Us 19 North,Pinellas Park,FL,33781,(727) 527-2063,-82.681347,27.834583
"Wm Nbrhd Mkt - Pinellas Park ,",#3013,7500 66th St,Pinellas Park,FL,33781,(727) 202-3101,-82.728655,27.840104
"Wm Nbrhd Mkt - Plantation ,",#4595,1885 N Pine Island Rd,Plantation,FL,33322,(954) 472-3134,-80.268855,26.148743
"Wm Nbrhd Mkt - Pompano Beach ,",#4617,1199 S Federal Hwy,Pompano Beach,FL,33069,(954) 781-8774,-80.107223,26.215649
"Walmart Supercenter - Pompano Beach ,",#1517,5001 N Federal Hwy; I-95 Exit 38,Pompano Beach,FL,33064,(954) 784-0220,-80.095267,26.292773
"Walmart Supercenter - Santa Rosa Beach,",#5872,6712 West Hwy 98,Santa Rosa Beach,FL,32459,(850) 622-6237 (NOP),-86.289028,30.37671
"Wm Nbrhd Mkt - Sarasota,",#3066,3500 Tamiami Trail,Sarasota,FL,34234,(941) 444-8410,-82.550711,27.366723
"Wm Nbrhd mkt - South Pasadena,",#3161,6850 Gulfport Blvd S,South Pasadena,FL,33707,(727) 202-3106,-82.73407,27.758191
"Walmart Supercenter - St. Petersburg,",#4690,201 34th St North,St Petersburg,FL,33713,(727) 803-4961 (NOP),-82.678033,27.772931
"Walmart Supercenter - Tallahassee (Falls),",#4520,4021 Lagniappe Way,Tallahassee,FL,32317,(850) 656-2151,-84.217288,30.461728
"Walmart Supercenter - Tampa,",#3197,15302 N Nebraska Ave; I-275 Exit 53,Tampa,FL,33613,(813) 371-6612,-82.449953,28.08899
"Walmart Supercenter - Tampa,",#4681,4302 W Gandy Blvd,Tampa,FL,33611,(813) 371-9444,-82.516271,27.891952
"Wm Nbrhd Mkt - Tampa (Elliott) ,",#5255,6216 Elliot Dr,Tampa,FL,33615,(813) 249-3145,-82.598874,28.005986
"Walmart Supercenter - Tarpon Springs,",#3415,41232 Hwy 19 N,Tarpon Springs,FL,34689,(727) 940-9289,-82.743334,28.147943
"Walmart Supercenter - The Villages ,",#4262,4085 Wedgewood Lane,The Villages,FL,32162,(352) 259-0128,-82.03288,28.92775
"Walmart Supercenter - Wimauma, Gas/Diesel,",#1203,4928 State Rd 674,Wimauma,FL,33598,(813) 633-1467,-82.332646,27.714051
"Wm Nbrhd Mkt - Winter Springs ,",#5132,5216 Red Bug Lake,Winter Springs,FL,32708,(407) 699-7050,-81.27813,28.648229
"Walmart Supercenter - Albany,",#5797,262 Cordele Rd,Albany,GA,31705,(229) 352-9332,-84.08748,31.57859
"Wm Nbrhd Mkt - Alpharetta,",#3186,11770 Haynes Bridge Rd,Alpharetta,GA,30009,(678) 259-2386,-84.294527,34.069597
"Walmart Supercenter - Alpharetta,",#4436,5455 Atlanta Ave,Alpharetta,GA,30004,(770) 475-4101,-84.2517,34.15184
"Walmart Express - Atlanta,",#6180,86 5th St NW,Atlanta,GA,30308,(404) 249-0229,-84.38982,33.776845
"Walmart Supercenter - Augusta,",#4144,3338 Wrightsboro Rd,Augusta,GA,30909,(706) 941-5317,-82.071967,33.467721
"Walmart Supercenter - Blairsville,",#3485,2257 Highwaay 515,Blairsville,GA,30512,(706) 835-2881,-83.998933,34.863511
"Walmart Supercenter - Chamblee,",#3621,1871 Chamblee Tucker Rd,Chamblee,GA,30341,(770) 455-0422,-84.310546,33.888915
"Walmart Supercenter - Cleveland,",#4616,260 Donald E Thurmond Pkwy,Cleveland,GA,30528,(706) 219-2304,-83.76052,34.57791
"Walmart Supercenter - College Park , Gas/Diesel,",#3401,6149 Old National Hwy,College Park,GA,30349,(770) 994-9440,-84.470982,33.586844
"Walmart Supercenter - Columbus,",#1311,5448 B Whittlesey Blvd,Columbus,GA,31909,(706) 322-8801,-84.946052,32.541702
"Walmart Supercenter - Columbus, Gas/Diesel,",#4200,6475 Gateway Rd,Columbus,GA,31909,(706) 563-5979,-84.876785,32.537565
"Walmart Supercenter - Dawsonville,",#3874,156 Power Center Dr,Dawsonville,GA,30534,(706) 265-8787,-84.04433,34.35592
"Wm Nbrhd Mkt - Dunwoody,",#3070,5025 Winters Chapel Rd,Dunwoody,GA,30360,(770) 280-0193,-84.270045,33.920008
"Walmart Supercenter - Jasper,",#5786,1100 Old Philadelphia Rd,Jasper,GA,30143,(706)301-5696,-84.461824,34.476287
"Walmart Supercenter - Kennesaw  , Gas/Diesel,",#3471,3105 N Cobb Pkwy,Kennesaw,GA,30152,(770) 974-9291,-84.658048,34.029112
"Wm Nbrhd Mkt - Lawrenceville,",#3074,3059 Lawrenceville Hwy,Lawrenceville,GA,30044,(678) 259-0050,-84.085261,33.921685
"Wm Nbrhd Mkt - Marietta,",#3068,1167 Powder Springs St,Marietta,GA,30064,(770) 799-1681,-84.573404,33.924084
"Wm Nbrhd Mkt - Marietta,",#3116,3372 Canton Rd,Marietta,GA,30066,(770) 800-9004,-84.527638,34.033881
"Walmart Supercenter - Marietta,",#3611,6520 Earnest Barrett Pkwy,Marietta,GA,30064,(770) 222-6666,-84.634,33.86749
"Wm Nbrhd Mkt - Martinez,",#5813,3851 Evans to Locks Rd,Martinez,GA,30907,(706) 941-5844,-82.086896,33.549953
"Walmart Supercenter - Norcross,",#3067,4975 Jimmy Carter Blvd,Norcross,GA,30093,(770) 225-9882,-84.195806,33.895031
"Walmart Supercenter - Rockmart,",#4409,1801 Nathan Dean Bypass,Rockmart,GA,30153,(678) 757-8766,-85.037727,34.01329
"Walmart Supercenter - Savannah ,",#4556,14030 Abercorn St,Savannah,GA,31419,(912) 344-9664,-81.174327,31.981284
"Wm Nbrhd Mkt - Snellville,",#3072,2912 W Main St,Snellville,GA,30078,(770) 225-0949,-84.033339,33.853101
"Walmart Supercenter - Stone Mountain ,",#3188,5935 Memorial Dr,Stone Mountain,GA,30083,(404) 260-6142,-84.195338,33.800317
"Walmart Supercenter - Thomasville,",#0889,15328 Us Hwy 19 S & Moultrie,Thomasville,GA,31792,(229) 228-0144,-83.94561,30.859954
"Wm Nbrhd Mkt - Tucker,",#3071,3201 Tucker Norcross Rd,Tucker,GA,30084,(770) 225-6010,-84.218819,33.883568
"Walmart Supercenter - Warner Robbins (S) , Gas/Diesel,",#3750,502 Booth Rd,Warner Robbins,GA,31088,(478) 918-0338,-83.612336,32.591119
"Walmart - Hilo,",#2473,325 Makaala St,Hilo,HI,96720,(808) 961-9115,-155.062835,19.700111
"Walmart - Kahului,",#3290,101 Pakaula St,Kahului,HI,96732,(808) 871-7820,-156.455702,20.878065
"Walmart - Kailua Kona,",#2321,75-1015 Henry St,Kailua Kona,HI,96740,(808) 334-0466,-155.990263,19.645553
"Walmart - Lihue,",#2308,3-3300 Kuhio Hwy,Lihue,HI,96766,(808) 246-1599,-159.365703,21.982491
"Walmart - Mililani,",#2126,95-550 Lanikuhana Ave,Mililani,HI,96789,(808) 623-6744,-158.005326,21.450783
"Walmart - Pearl City,",#5274,1131 Kuala St,Pearl City,HI,96782,(808) 454-8785,-157.974096,21.397887
"Walmart - Waipahu,",#2314,94-595 Kupuohi St,Waipahu,HI,96797,(808) 688-0066,-158.034457,21.390783
"Walmart Supercenter - Ames,",#4256,534 South Duff Ave,Ames,IA,50010,(515) 956-3536,-93.607945,42.015998
"Walmart Supercenter - Grimes,",#5748,2150 East 1st St,Grimes,IA,50111,(515) 986-1783,-93.77108,41.686616
"Walmart Supercenter - Ammon,",#1902,1201 S 25th E,Ammon,ID,83406,(208) 522-0204,-111.981775,43.486596
"Walmart Supercenter - Hayden,",#3511,550 W Honeysuckle,Hayden,ID,83835,(208)209-4044,-116.793302,47.751266
"Walmart Supercenter - Meridian,",#3093,795 West Overland Rd,Meridian,ID,83642,(208) 917-6902,-116.402178,43.589458
"Walmart Supercenter - Post Falls,",#4395,6405 W Pointe Pkwy,Post Falls,ID,83854,(208)777-4151,-117.030008,47.70305
"Walmart Supercenter - Twin Falls,",#3897,252 Cheney Dr W,Twin Falls,ID,83301,(208) 734-2136,-114.483057,42.589543
"Walmart Supercenter - Aurora (NE),",#4405,2900 Kirk Rd,Aurora,IL,60504,(630) 375-6207,-88.282078,41.815663
"Walmart Supercenter - Belleville,",#0201,2608 Green Mount Commons Dr.,Belleville,IL,62221,(618) 236-2200,-89.954336,38.514703
"Wm Nbrhd Mkt - Chicago,",#2430,1424 W 47th St,Chicago,IL,60609,(773) 475-4459,-87.66081,41.808613
"Walmart Express - Chicago,",#3039,225 W Chicago Ave,Chicago,IL,60654,(312) 274-9581,-87.634879,41.896386
"Wm Nbrhd Mkt - Chicago,",#5646,2551 W Cermak,Chicago,IL,60608,(773) 475-4209,-87.68959,41.851869
"Wm Nbrhd Mkt - Chicago,",#5645,2844 N BRdway,Chicago,IL,60657,(773) 687-4401,-87.644554,41.934216
"Walmart Express - Chicago,",#3065,3636 N BRdway St,Chicago,IL,60613,(773) 281-3321,-87.6482,41.9482
"Walmart Supercenter - Chicago,",#5617,4626 W Diversey Ave,Chicago,IL,60639,(773) 628-1880,-87.743425,41.931709
"Walmart Supercenter - Chicago (W),",#5402,4650 West North Ave,Chicago,IL,60639,(773) 252-7465,-87.742825,41.910593
"Wm Nbrhd Mkt - Chicago,",#5647,570 W Monroe St,Chicago,IL,60661,(312) 470-1460,-87.642467,41.880454
"Walmart Supercenter - Chicago,",#5781,8331 S Stewart Ave,Chicago,IL,60620,(773) 358-9000,-87.63293,41.741308
"Walmart Supercenter - Cicero,",#3004,3320 S Cicero Ave; I-55 Exit 286,Cicero,IL,60804,(708) 735-8456,-87.744661,41.83112
"Walmart Supercenter - Crestwood,",#3601,4700 West 135th St,Crestwood,IL,60445,(708) 489-5547,-87.735256,41.648152
"Walmart Supercenter - Freeport,",#1740,2545 Illinois Route 26 So. Rd.,Freeport,IL,61032,(815) 232-8120,-89.629628,42.264139
"Walmart Supercenter - Godfrey ,",#4695,6660 Godfrey Rd,Godfrey,IL,62035,(618) 433-3008,-90.193548,38.964664
"Walmart Supercenter - Huntley,",#4641,12300 Rte 47,Huntley,IL,60142,(847) 669-7126,-88.43127,42.14334
"Walmart Supercenter - Johnsburg,",#1377,3801 Running Brook Farms Blvd,Johnsburg,IL,60051,(815) 363-0100,-88.270966,42.369549
"Walmart Supercenter - Joliet,",#1256,2424 W. Jefferson St.,Joliet,IL,60436,(815) 744-7575,-88.142259,41.520142
"Walmart Supercenter - Lockport,",#3790,16241 South Farrell Rd,Lockport,IL,60441,(815) 838-1027,-88.024288,41.592503
"Walmart Supercenter - Montgomery,",#4286,2000 Orchard Rd,Montgomery,IL,60538,(630) 844-0292,-88.373767,41.720296
"Walmart Supercenter - New Lenox,",#4529,501 E Lincoln Hwy,New Lenox,IL,60451,(815) 215-2008,-87.953417,41.514048
"Walmart Supercenter - Niles ,",#3725,8500 West Golf Rd,Niles,IL,60714,(847) 966-7904,-87.835487,42.055807
"Walmart Supercenter - Oswego, Gas/Diesel,",#3400,2300 Route 34,Oswego,IL,60543,(630) 554-3014,-88.303027,41.704477
"Walmart Supercenter - Roscoe,",#3837,4781 E. Rockton Rd,Roscoe,IL,61073,(815) 389-4055,-89.024253,42.455144
"Walmart Supercenter - Savoy, Gas/Diesel,",#3255,505 South Dunlap Ave; I-57 Exit 229/232,Savoy,IL,61874,(217) 355-5845,-88.254814,40.048747
"Walmart Supercenter - Shelbyville,",#4259,2607 W Main St,Shelbyville,IL,62565,(217) 774-1560,-88.828369,39.407179
"Walmart Supercenter - Silvis,",#4511,1601 18th St,Silvis,IL,61282,(309) 796-3526,-90.404539,41.495673
"Walmart Supercenter - Streator,",#4699,2415 N Bloomington St,Streator,IL,61364,(815) 672-3071,-88.83409,41.151644
"Walmart Supercenter - Waukegan , Gas/Diesel,",#3891,3900 Fountain Square Place,Waukegan,IL,60085,(847) 473-2193,-87.899571,42.343566
"Walmart Supercenter - Woodstock,",#3434,1275 Lake Ave,Woodstock,IL,60098,(815) 206-0256,-88.422904,42.296722
"Walmart Supercenter - Zion ,",#3893,4000 Route #173,Zion,IL,60099,(847) 731-8172,-87.86779,42.46543
"Walmart Supercenter - Camby,",#4417,8191 Upland Way,Camby,IN,46113,(317) 856-5748,-86.328909,39.642816
"Walmart Supercenter - Elkhart (W),",#4399,30830 Old Us 20,Elkhart,IN,46514,(574) 674-2656,-86.058115,41.687772
"Wm Nbrhd Mkt - Evansville (SE),",#5372,3430 Taylor Ave,Evansville,IN,47714,(812) 471-4243,-87.508712,37.957842
"Wm Nbrhd Mkt - Fishers,",#5767,9354 E 131st St; I-69 Exit 205,Fishers,IN,46038,(317) 567-8406,-86.00211,39.979501
"Walmart Supercenter - Fort Wayne , Gas/Diesel,",#4230,10105 Lima Rd,Fort Wayne,IN,46818,(260) 490-6510,-85.167454,41.176408
"Walmart Supercenter - Fort Wayne, Gas/Diesel,",#4231,7502 Southtown Crossing Blvd,Fort Wayne,IN,46816,(260) 441-7071,-85.119687,41.01472
"Walmart Supercenter - Hammond,",#4631,1100 5th Ave,Hammond,IN,46320,(219) 473-9653,-87.519693,41.694141
"Wm Nbrhd Mkt - Indianapolis ,",#5406,8010 East 38th St,Indianapolis,IN,46226,(317) 895-5734,-86.026119,39.827686
"Walmart Supercenter - Lafayette,",#3851,2347 East 350 South,Lafayette,IN,47909,(765) 477-9379,-86.859033,40.365844
"Walmart Supercenter - Muncie, Gas/Diesel,",#3747,1501 East 29th St,Muncie,IN,47302,(765) 282-7467,-85.369479,40.158518
"Walmart Supercenter - Newburgh,",#5728,8599 Highpointe Dr,Newburgh,IN,47630,(812) 842-2361,-87.406744,37.979781
"Walmart Supercenter - Plainfield, Gas/Diesel,",#0828,2373 E Main St,Plainfield,IN,46168,(317) 839-2261,-86.367422,39.712448
"Walmart Supercenter - South Bend,",#3436,700 West Ireland Rd,South Bend,IN,46614,(574) 299-1284,-86.256605,41.626431
"Wm Nbrhd Mkt - Derby,",#3155,1106 S Rock Rd,Derby,KS,67037,(316) 788-8333,-97.244141,37.531952
"Walmart Supercenter - Goddard,",#3103,18631 W Kellogg Dr,Goddard,KS,67052,(316) 347-2092,-97.554504,37.663827
"Walmart Supercenter - Kansas City (NE),",#1151,10824 Parallel Pkwy; I-405 Exit 148,Kansas City,KS,66109,(913) 788-3331,-94.830153,39.131277
"Walmart Supercenter - Lawrence,",#5219,550 Congressional Dr,Lawrence,KS,66049,(785) 841-1700,-95.309835,38.972668
"Wm Nbrhd Mkt - Olathe,",#4198,18555 W 151st Street,Olathe,KS,66062,(913) 489-8366,-94.777498,38.853722
"Walmart Supercenter - Olathe (W),",#4475,395 N Ave K 7 Hwy,Olathe,KS,66061,(913) 764-7150,-94.836361,38.886103
"Wm Nbrhd Mkt - Overland Park ,",#5207,9000 Metcalf Ave,Overland Park,KS,66212,(913) 649-4335,-94.668732,38.965328
"Walmart Supercenter - Topeka,",#5441,2600 N.w. Rochester Rd,Topeka,KS,66608,(785) 357-4827,-95.671666,39.092858
"Wm Nbrhd Mkt - Wichita,",#5855,10550 W Central Ave,Wichita,KS,67212,(316) 448-3567,-97.46438,37.695053
"Wm Nbrhd Mkt - Wichita,",#5990,2111 N Amidon,Wichita,KS,67203,(316) 361-3325,-97.363886,37.721193
"Wm Nbrhd Mkt - Wichita,",#5991,3137 S Senaca St,Wichita,KS,67207,(316) 361-3345,-97.353801,37.637941
"Wm Nbrhd Mkt - Wichita,",#5873,4794 E 13th,Wichita,KS,67208,(3160 361-3382,-97.280903,37.708462
"Walmart Supercenter - Wichita,",#4321,5475 N Meridian,Wichita,KS,67204,(316) 831-9425,-97.373503,37.783212
"Wm Nbrhd Mkt - Wichita,",#5856,601 N West St,Wichita,KS,67203,(316) 361-3201,-97.390425,37.693076
"Wm Nbrhd Mkt - Wichita,",#5860,9831 E Harry St,Wichita,KS,67207,(316) 361-3305,-97.223855,37.662556
"Wm Nbrhd Mkt - Jeffersontown , Gas/Diesel,",#5183,3800 Ruckriegel Pkwy,Jeffersontown,KY,40299,(502) 266-2685,-85.564312,38.189155
"Wm Nbrhd Mkt - Lexington ,",#4607,3735 Palomar Center Dr,Lexington,KY,40513,(859) 224-0840,-84.571987,38.004349
"Wm Nbrhd Mkt - Lexington ,",#4413,4230 Sharon Dr,Lexington,KY,40515,(859) 272-1272,-84.501831,37.966869
"Wm Nbrhd Mkt - Louisville ,",#3841,3101 Poplar Level Rd,Louisville,KY,40213,(502) 636-4356,-85.720008,38.212884
"Wm Nbrhd Mkt - Louisville ,",#4524,5360 Dixie Hwy,Louisville,KY,40261,(502) 447-4757,-85.835574,38.157054
"Walmart Supercenter - Louisville,",#3610,7100 Raggard Rd,Louisville,KY,40216,(502) 447-4677,-85.871113,38.172365
"Wm Nbrhd Mkt - St. Matthews ,",#5297,143 Thierman Lane,St. Matthews,KY,40207,(502) 893-8088,-85.644269,38.253253
"Walmart Supercenter - Abbeville , Gas/Diesel,",#0309,3005 Veterans Memorial Dr,Abbeville,LA,70510,(337) 893-6485,-92.095051,29.972038
"Walmart Supercenter - Alexandria , Gas/Diesel,",#4295,6225 Coliseum Blvd,Alexandria,LA,71303,(318-448-8881,-92.513564,31.292995
"Wm Nbrhd Mkt - Baton Rouge (Coursey) , Gas/Diesel,",#5328,14241 Coursey Blvd,Baton Rouge,LA,70817,(225) 752-5354,-91.021059,30.408918
"Wm Nbrhd Mkt - Baton Rouge ,",#4659,5255 Highland Rd,Baton Rouge,LA,70808,(225) 766-7776,-91.160363,30.39497
"Walmart Supercenter - Broussard,",#0415,123 Saint Nazaire Rd,Broussard,LA,70518,(337) 837-8886,-91.94339,30.143251
"Wm Nbrhd Mkt - Covington,",#3042,2800 N Hwy 190,Covington,LA,70433,(985) 327-6312,-90.086071,30.470925
"Walmart Supercenter - Denham Springs,",#4679,34025 Hwy 16,Denham Springs,LA,70706,(225) 271-2307,-90.957429,30.56165
"Wm Nbrhd Mkt - Harvey ,",#5722,3265 Manahattan Blvd,Harvey,LA,70058,(504) 366-1404,-90.045479,29.861608
"Wm Nbrhd Mkt - Mandeville,",#5832,3009 E Causeway Approach,Mandeville,LA,70448,(985) 626-1113,-90.076893,30.372169
"Walmart Supercenter - Ponchatoula,",#4129,1331 Hwy 51; I-55 Exit 26,Ponchatoula,LA,70454,(985) 467-8046,-90.452888,30.43946
"Walmart Supercenter - Shreveport, Gas/Diesel,",#3868,1125 Shreveport Barksdale Hwy,Shreveport,LA,71105,(318) 861-9202,-93.706177,32.484796
"Walmart Supercenter - Shreveport, Gas,",#0278,1645 Bert Kouns Industrial Loop,Shreveport,LA,71105,(318) 797-5970,-93.712562,32.429582
"Walmart Supercenter - Vidalia , Gas/Diesel,",#1106,4283 Carter St,Vidalia,LA,71373,(318) 336-8996,-91.46254,31.576605
"Walmart - East Wareham ,",#2095,3005 Cranberry Hwy,East Wareham,MA,02538,(508) 295-8890,-70.663175,41.758403
"Walmart Supercenter - Fall River ,",#3560,638 Quequechan St; Hwy 24 Exit 1,Fall River,MA,02721,(508) 730-2677,-71.141175,41.686018
"Walmart Supercenter - Leicester,",#3409,20 Soojiians Dr,Leicester,MA,01524,(508) 892-9461,-71.936636,42.249378
"Walmart Supercenter - North Adams ,",#1984,1414 Curran Hwy,North Adams,MA,01247,(413) 664-4004,-73.107832,42.663673
"Walmart Supercenter - Raynham,",#5448,160 Broadway; I-495 Exit 8,Raynham,MA,02767,(508) 692-6046,-71.084543,41.93435
"Walmart - Teaticket,",#3561,137 Teaticket Hwy,Teaticket,MA,02536,(508) 540-8995,-70.595221,41.560655
"Walmart Supercenter - Worcester,",#4387,25 Tobias Boland Way,Worcester,MA,01607,(774) 314-3157,-71.791364,42.233042
"Walmart Supercenter - Cockeysville ,",#2577,1 Frankel Way,Cockeysville,MD,21030,(410) 628-0980,-76.637667,39.466079
"Walmart - Columbia,",#5228,6405 Dobbin Rd,Columbia,MD,21045,(410) 740-2448,-76.818725,39.195889
"Walmart Supercenter - Denton,",#3843,610 Legion Rd,Denton,MD,21629,(410) 479-0278,-75.821608,38.87553
"Walmart - Dunkirk,",#5345,10600 Towne Center Blvd,Dunkirk,MD,20754,(410) 257-2610,-76.65813,38.722445
"Walmart Supercenter - Fallston,",#3780,303 Falston Blvd,Falston,MD,21047,(443) 686-7037,-76.385311,39.497661
"Walmart - Landover Hills,",#5129,6210 Annapolis Rd,Landover Hills,MD,20784,(301) 773-7848,-76.90731,38.942164
"Walmart Supercenter - Randallstown,",#3804,8730 Liberty Rd,Randallstown,MD,21133,(443) 576-3132,-76.781985,39.365315
"Walmart Supercenter - Skowhegan,",#2143,60 Fairgrounds Market Place,Skowhegan,ME,04976,(207) 474-2126,-69.73099,44.779602
"Walmart Supercenter - Belleville,",#2872,10562 Belleville Rd,Belleville,MI,48111,(734) 697-2078,-83.487219,42.225752
"Walmart Supercenter - Canton,",#5761,4555 Michigan Ave,Canton,MI,48188,(734) 985-9413,-83.488924,42.270016
"Walmart Supercenter - Clinton Township,",#4660,18400 Hall Rd,Clinton Township,MI,48038,(586) 263-7196,-82.937614,42.626991
"Walmart Supercenter - Dearborn,",#4383,5851 Mercury Dr,Dearborn,MI,48126,(313) 441-0194,-83.209206,42.330162
"Walmart Supercenter - Grand Haven , Gas/Diesel,",#5386,14700 Hwy 31,Grand Haven,MI,49417,(616) 844-3074,-86.217784,43.035574
"Walmart Supercenter - Hartland Township,",#4584,10400 Highland Rd,Hartland,MI,48353,(810) 632-0039,-83.745814,42.631504
"Walmart Supercenter - Ironwood,",#5444,10305 Country Club Rd,Ironwood,MI,49938,(906) 932-0713,-90.126837,46.47103
"Walmart Supercenter - Muskegon,",#3876,3285 Henry St,Muskegon,MI,49441,(231) 739-4710,-86.265287,43.192904
"Walmart Supercenter - Novi,",#5893,26090 Ingersol Dr,Novi,MI,48375,(248) 277-4092,-83.473598,42.482165
"Walmart Supercenter - Rochester Hills,",#2354,2500 S. Adams Rd.,Rochester Hills,MI,48309,(248) 853-0433,-83.19892,42.642715
"Walmart Supercenter - Saline ,",#5472,7000 East Michigan St,Saline,MI,48176,(734) 944-1053,-83.735648,42.188317
"Walmart Supercenter - Southgate,",#5842,14900 Dix Toledo Rd,Southgate,MI,48195,(734) 286-9594,-83.209957,42.201627
"Walmart Supercenter - Sterling Heights,",#2559,33201 Van Dyke Ave.,Sterling Heights,MI,48312,(586) 939-7208,-83.030586,42.538373
"Walmart Supercenter - Three Rivers,",#3791,101 S Tolbert Dr,Three Rivers,MI,49093,(269) 273-7820,-85.654857,41.941804
"Walmart Supercenter - Warren,",#4424,29176 Van Dyke Ave; I-696 Exit 23,Warren,MI,48093,(586) 467-0258,-83.025897,42.507213
"Walmart - Blaine,",#5976,11505 Ulysses ST NE,Blaine,MN,55434,(763) 354-1979,-93.23754,45.180114
"Walmart Supercenter - Burnsville,",#5977,12200 River Ridge Blvd,Burnsville,MN,55337,(952) 356-0018,-93.284733,44.781471
"Walmart Supercenter - Cottage Grove ,",#2448,9300 E Point Douglas Rd,Cottage Grove,MN,55016,(651) 846-2831,-92.91644,44.808628
"Walmart Supercenter - Crookston,",#3758,1930 Sahlstrom Dr,Crookston,MN,56716,(218) 281-2970,-96.608929,47.791535
"Walmart Supercenter - Fairmont,",#3806,1250 Goemann Rd,Fairmont,MN,56031,(507) 235-2500,-94.444934,43.682922
"Walmart Supercenter - Lakeville,",#5992,20710 Keokuk Ave,Lakeville,MN,55044,(612) 354-5927,-93.297355,44.649586
"Walmart Supercenter - Litchfield,",#4374,2301 Frontage Rd Apt E,Litchfield,MN,55355,(320) 693-9552,-94.49046,45.12056
"Walmart Supercenter - New Ulm,",#3760,1720 Westridge Rd,New Ulm,MN,56073,(507) 350-0900,-94.504886,44.327533
"Walmart Supercenter - Park Rapids,",#4244,1303 Charles St,Park Rapids,MN,56470,(218) 732-0339,-95.0336,46.9246
"Walmart Supercenter - Princeton,",#3102,300 21st St Ave N,Princeton,MN,55371,(763) 389-7821,-93.602805,45.572824
"Walmart Supercenter - Roseville,",#3404,1960 Twin Lakes Pkwy,Roseville,MN,55113,(612) 788-1303,-93.2196,45.037508
"Walmart Supercenter - Saint Cloud,",#1633,21 Country Rd 120,Saint Cloud,MN,56301,(320) 259-1527,-94.1886,45.59266
"Walmart Supercenter - Thief River Falls,",#3761,1755 Hwy 59 SE,Thief River Falls,MN,56701,(218) 683-3643,-96.1507,48.1118
"Walmart Supercenter - Wadena,",#4246,100 Juniper Ave NW,Wadena,MN,56482,(218) 631-1068,-95.126797,46.452781
"Walmart Supercenter - Bowling Green,",#0145,3 Town Center Dr,Bowling Green,MO,63334,(573) 324-0040,-91.181711,39.331104
"Walmart Supercenter - Branson,",#4381,1101 Branson Hills Pkwy,Branson,MO,65616,(417) 334-2137,-93.228829,36.670168
"Walmart Supercenter - Bridgeton,",#1188,11900 St Charles Rock Rd; I-270 Exit 234,Bridgeton,MO,63044,(314) 291-2300,-90.418718,38.745359
"Walmart Supercenter - Columbia,",#0451,1201 Grindstone Pkwy,Columbia,MO,65201,(573) 449-0815,-92.323633,38.912265
"Walmart Supercenter - Columbia  ,",#0080,3001 W BRdway,Columbia,MO,65203,(573) 445-9506,-92.382434,38.956067
"Walmart Supercenter - High Ridge,",#0313,2700 Ridge Point Dr,High Ridge,MO,63049,(636) 375-3201,-90.523233,38.462485
"Walmart Supercenter - Jefferson City,",#5477,401 Supercenter Dr,Jefferson City,MO,65101,(573) 635-3535,-92.119038,38.541293
"Wm Nbrhd Mkt - Joplin,",#4057,1600 E 7th St,Joplin,MO,64801,(417) 680-2022,-94.496473,37.083067
"Walmart Supercenter - Manchester,",#1177,201 Highland Boulevard Dr,Manchester,MO,63011,(636) 256-0697,-90.506504,38.595515
"Walmart Supercenter - Raytown,",#1094,10300 Blue Ridge Blvd (hwy 350),Raytown,MO,64133,(816) 358-7790,-94.480405,39.001336
"Wm Nbrhd Mkt - Springfield,",#5693,1320 S Glenstone,Springfield,MO,65804,(417) 520-0089,-93.260558,37.189433
"Wm Nbrhd Mkt - Springfield,",#5692,3150 West Republic Rd,Springfield,MO,65810,(417) 520-3144,-93.343101,37.138112
"Wm Nbrhd Mkt - Springfield,",#3062,3536 W Mount Vernon St,Springfield,MO,65802,(417) 616-2669,-93.35002,37.20442
"Wm Nbrhd Mkt - Springfield,",#3111,545 El Camino Alto Dr,Springfield,MO,65802,(417) 414-6621,-93.298868,37.13142
"Walmart Supercenter - Canton,",#3059,244 Feather Ln; I-55 exit 118/119,Canton,MS,39046,(601) 761-6000,-90.070132,32.601162
"Walmart Supercenter - Brandon,",#2755,5341 Lakeland Dr,Flowood,MS,39232,(601) 992-8898,-90.024069,32.35229
"Wm Nbrhd Mkt - Horn Lake , Gas/Diesel,",#3593,2401 Goodman Rd,Horn Lake,MS,38637,(662) 342-5929,-90.032548,34.961666
"Walmart Supercenter - Havre,",#4247,3510 Hwy 2 W,Havre,MT,59501,(406) 262-9162,-109.735501,48.554873
"Walmart Supercenter - Apex,",#3889,3151 Apex Peakway,Apex,NC,27502,(919) 362-3737,-78.84382,35.714986
"Walmart Express - Ayden,",#3080,182 NC 102 W,Ayden,NC,28513,(252) 746-3092,-77.438719,35.476412
"Walmart Supercenter - Burlington (N) , Gas/Diesel,",#3612,530 So. Graham-hopedale Rd,Burlington,NC,27217,(336) 226-1819,-79.40425,36.091467
"Walmart Express - Carthage,",#2500,945 Monroe St,Carthage,NC,28327,(910) 947-6670,-79.403837,35.340743
"Wm Nrbhd Mkt - Cary,",#4157,2750 Hwy 55,Cary,NC,27519,(919) 335-0051,-78.870471,35.786292
"Wm Nbrhd Mkt - Cary,",#2414,973 N Harrisin Ave,Cary,NC,27513,(919) 337-9780,-78.784523,35.801434
"Walmart Supercenter - Chapel Hill,",#3182,12500  Hwy 15/501 N,Chapel Hill,NC,27517,(919) 357-9039,-79.081668,35.860148
"Walmart - Charlotte (E),",#1666,3850 E Independence Blvd,Charlotte,NC,28205,(704) 535-3708,-80.77524,35.20017
"Wm Nbrhd Mkt - Charlotte,",#4149,7421 E  Independence Blvd,Charlotte,NC,28227,(704) 595-4010,-80.736663,35.161425
"Walmart Supercenter - Cherryville , Gas/Diesel,",#4594,2505 Lincolnton Hwy,Cherryville,NC,28021,(704) 435-4449,-81.340007,35.400181
"Walmart Express - Coats,",#3249,511 N McKinley St,Coats,NC,27521,(910) 230-0102,-78.673711,35.41487
"Walmart Supercenter - Denver,",#4274,7131 Hwy #73,Denver,NC,28037,(704) 827-8911,-81.002522,35.451095
"Walmart Supercenter - Durham,",#4369,1010 Martin Luther King Jr Pkwy,Durham,NC,27713,(919) 213-4225,-78.924785,35.950375
"Walmart Supercenter - Fayetteville ,",#1238,1550 Skibo Rd & Morganton Rd,Fayetteville,NC,28303,(910) 868-6434,-78.956143,35.081331
"Walmart Supercenter - Goldsboro,",#4564,2908 Us Hwy 70 West,Goldsboro,NC,27530,(919) 736-7332,-78.062581,35.430917
"Walmart Supercenter - Granite Falls,",#4410,4780 Hickory Blvd,Granite Falls,NC,28630,(828) 396-3170,-81.394381,35.780313
"Walmart Supercenter - Greensboro (NE), Gas/Diesel,",#3658,2107 Pyramid Village Blvd,Greensboro,NC,27405,(336) 375-5445,-79.755562,36.10997
"Walmart Supercenter - Havelock,",#3825,566 Hwy 70 West,Havelock,NC,28532,(252) 444-2055,-76.937639,34.913738
"Wm Nbrhd Mkt - High Point,",#5013,4102 Precision Way,High Point,NC,27265,(336) 804-6018,-79.963225,36.028582
"Walmart Supercenter - Holly Springs,",#4458,7016 G.b. Alford Hwy,Holly Springs,NC,27540,(919) 557-9181,-78.833246,35.636647
"Walmart Supercenter - Huntersville,",#5879,11145 Bryton Town Center Dr; I-77 Exit 19,Huntersville,NC,28078,(704) 977-2040,-80.827279,35.371659
"Walmart Supercenter - Indian Trail,",#3700,2101 Younts Rd,Indian Trail,NC,28079,(704) 882-5566,-80.65082,35.078102
"Walmart Supercenter - Jacksonville,",#3864,561 Yopp Rd,Jacksonville,NC,28540,(910) 346-1889,-77.463908,34.750475
"Walmart Supercenter - Leland , Gas/Diesel,",#4273,1112 New Pointe Blvd,Leland,NC,28451,(910) 383-1769,-78.023923,34.21109
"Walmart Express - Liberty,",#6997,632 W Swannanoa Ave,Liberty,NC,27298,(336) 622-1011,-79.583378,35.851895
"Walmart Supercenter - Locust,",#5747,1876 Main St,Locust,NC,28097,(704) 781-0426,-80.458394,35.256326
"Walmart Express - Midway,",#3121,189 Hickory Tree Rd,Midway,NC,27107,(336) 764-8152,-80.223135,35.966469
"Walmart Supercenter - Morrisville, Gas,",#4250,1001 Shiloh Glen Dr,Morrisville,NC,27560,(919) 474-2285,-78.84656,35.86594
"Walmart Supercenter - Mount Olive , Gas/Diesel,",#3701,308 Hwy 55 W,Mount Olive,NC,28365,(919) 658-1701,-78.070836,35.211203
"Walmart Supercenter - Nashville,",#4459,1205 Eastern Ave,Nashville,NC,27856,(252) 459-0020,-77.933939,35.968791
"Wm Nbrhd Mkt - New Bern,",#7218,2915 Neuse Blvd,New Bern,NC,28563,(252) 649-6052,-77.088628,35.125524
"Walmart Express - Oriental,",#7207,1400 B Broad St,Oriental,NC,28571,(252) 249-3004,-76.690643,35.038998
"Walmart Express - Pikeville, Gas,",#2573,303 S Goldsboro St,Pikeville,NC,27863,(919) 242-8710,-77.981483,35.493105
"Walmart Express - Stedman,",#5017,7670 Clinton Rd,Stedman,NC,29391,(910) 484-5040,-78.687197,35.01048
"Walmart Express - Princeton,",#3211,509 Dr. Donnie H Jones Blvd West,Princeton,NC,27569,(919) 936-0022,-78.16564,35.471345
"Walmart Supercenter - Raeford,",#5787,4545 Fayetteville Rd,Raeford,NC,28376,(910)683-6056,-79.175541,35.009733
"Walmart Supercenter - Raleigh,",#1372,4500 Fayetteville Rd,Raleigh,NC,27603,(919) 772-8751,-78.655126,35.719126
"Walmart Express - Red Springs,",#5015,908 E 4th Ave,Red  Springs,NC,28377,(910) 843-5030,-79.17455,34.811554
"Walmart Express - Richfield,",#3007,139 N Hwy 49,Richfield,NC,28137,(704) 463-0296,-80.265342,35.472929
"Walmart Express - Snow Hill,",#3037,905 SE 2nd St,Snow Hill,NC,28580,(252) 747-1084,-77.663505,35.444994
"Wm Nbrhd Mkt - Surf City,",#4087,420 Fun Center Dr,Surf City,NC,28445,(910) 803-6001,-77.564487,34.449187
"Walmart Supercenter - Waynesville,",#1663,135 Town Center Loop,Waynesville,NC,28786,(828) 456-4828,-83.01073,35.46588
"Walmart Supercenter - Winston Salem , Gas/Diesel,",#3626,3475 Pkwy Village Cr,Winston Salem,NC,27127,(336) 771-1011,-80.262707,36.02822
"Walmart Express - Yanceyville,",#3036,1593 Hwy 86 N,Yanceyville,NC,27379,(336) 694-1019,-79.35622,36.42541
"Walmart Supercenter - Zebulon,",#4499,841 East Gannon Ave,Zebulon,NC,27597,(919) 269-2221,-78.29636,35.82897
"Walmart Supercenter - Bismarck (N),",#3648,1400 Skyline Blvd,Bismarck,ND,58503,(701) 323-0530,-100.769279,46.857742
"Walmart Supercenter - Bismarck,",#1534,2717 Rock Island Place,Bismarck,ND,58503,(701) 223-3066,-100.74996,46.79175
"Walmart Supercenter - Bottineau,",#4569,912 11th St E,Bottineah,ND,58318,(701) 228-5276,-100.43259,48.819609
"Walmart Supercenter - Grand Forks,",#5806,5755 Gateway Dr; I-29 Exit 141,Grand Forks,ND,58203,(701) 620-6003,-97.115252,47.93183
"Walmart Supercenter - Wahpeton,",#3875,1625 Commerce Dr,Wahpeton,ND,58075,(701) 642-9086,-96.628682,46.283795
"Walmart Supercenter - Blair ,",#4568,1882 Holly St,Blair,NE,68008,(402) 533-8222,-96.141864,41.526537
"Walmart Supercenter - Crete,",#4322,1800 E 29th St,Crete,NE,68333,(402) 826-1002,-96.940444,40.640601
"Walmart Supercenter - Gretna,",#4600,11350 Wickersham Blvd,Gretna,NE,68028,(402)881-3530,-96.164709,41.142978
"Walmart - Lincoln,",#2432,2501 Grainger Pkwy,Lincoln,NE,68512,(402) 975-6171,-96.684468,40.730015
"Walmart Supercenter - Lincoln,",#3823,3400 N 85th St,Lincoln,NE,68507,(402) 466-0477,-96.603368,40.84877
"Walmart Supercenter - Nebraska City,",#4209,2101 S. 11th St,Nebraska City,NE,68410,(402) 874-9080,-95.857022,40.657754
"Wm Nbrhd Mkt - Omaha,",#4138,13105 Birch Dr,Omaha,NE,68164,(402) 686-2055,-96.117615,41.291153
"Walmart Supercenter - Omaha,",#4358,1606 S 72nd St,Omaha,NE,68124,(402) 393-9560,-96.025028,41.245199
"Wm Nbrhd Mkt - Omaha,",#3152,2451 N 90th St,Omaha,NE,68134,(402) 513-4030,-96.045644,41.280981
"Walmart Supercenter - Omaha,",#3151,5018 Ames Ave,Omaha,NE,68104,(402) 970-9301,-95.991518,41.300098
"Wm Nbrhd Mkt - Omaha,",#3172,5051 L St,Omaha,NE,68117,(402) 541-0820,-95.992054,41.211764
"Wm Nbrhd Mkt - Omaha,",#3153,6710 South 167th St,Omaha,NE,68135,(402) 609-5703,-96.168662,41.192888
"Walmart Supercenter - Papillion,",#1671,8525 S. 71st St. Plaza,Papillion,NE,68128,(402) 597-8977,-96.021777,41.175
"Walmart Supercenter - Woodsville,",#4389,4901 Dartmouth College Hwy,Woodsville,NH,03785,(603) 747-8250,-72.0257,44.1416
"Walmart Supercenter - Bayonne,",#5867,500 Bayonne Crossing Way,Bayonne,NJ,07002,(201) 620-6137,-74.105874,40.661479
"Walmart - Bridgeton,",#5384,1130 Hwy 77,Bridgeton,NJ,08302,(856) 453-0418,-75.207353,39.466867
"Walmart Supercenter - Flemington,",#2294,150 Rte 31,Flemington,NJ,08822,(908) 788-6769,-74.853876,40.526805
"Walmart Supercenter - Freehold,",#3236,326 West Main St,Freehold,NJ,07728,(732) 780-3048,-74.294399,40.243166
"Walmart Supercenter - Garfield,",#5752,174 Passaic St,Garfield,NJ,07026,(973)330-3550,-74.099707,40.867153
"Walmart Supercenter - Lanoka Harbor,",#5414,580 Route 9 North,Lanoka Harbor,NJ,08734,(609) 242-4231,-74.178283,39.858226
"Walmart Supercenter - North Bergen,",#3795,2100 88th St,North Bergen,NJ,07047,(201) 758-2810,-74.01491,40.812634
"Walmart Supercenter - Old Bridge,",#4153,2825 Route 18 S,Old Bridge,NJ,08857,(732) 955-0139,-74.316859,40.374677
"Walmart - Rio Grande,",#3337,3159 Route 9 South,Rio Grande,NJ,08242,(609) 465-2204,-74.870939,39.020358
"Walmart Supercenter - Somerdale,",#4456,1 Coopertown Blvd,Somerdale,NJ,08083,(856) 545-9052,-75.0225,39.855043
"Walmart Supercenter - Vineland,",#3339,1070 W Landis Ave.,Vineland,NJ,08360,(856) 205-9940,-75.047395,39.489132
"Walmart Supercenter - Williamstown,",#3774,1840 S Blackhorse Pike,Williamstown,NJ,08094,(856) 629-2054,-74.962169,39.662737
"Walmart Supercenter - Woodbury,",#3422,2000 Clements Bridge Rd,Woodbury,NJ,08096,(856) 384-3211,-75.091845,39.843152
"Walmart Supercenter - Woodbury,",#5476,820 Cooper St,Woodbury,NJ,08096,(856) 686-0133,-75.128328,39.832064
"Wm Nbrhd Mkt - Alameda,",#3317,8511 Golf Course Rd NW,Alameda,NM,87114,(505) 792-3676,-106.689155,35.18051
"Wm Nbrhd Mkt - Albuquerque,",#5675,11001 Menaul Blvd NE,Albuquerque,NM,87112,(505) 200-3435,-106.518056,35.109291
"Wm Nbrhd Mkt - Albuquerque,",#2451,4700 Cutler Ave NE,Albuquerque,NM,87110,(505) 346-0702,-106.591989,35.105555
"Wm Nbrhd Mkt - Albuquerque ,",#3385,9600 Sage Rd Sw,Albuquerque,NM,87121,(505) 831-3618,-106.739451,35.055294
"Walmart Supercenter - Bernalillo ,",#3731,460 Nm Hwy #528,Bernalillo,NM,87004,(505) 771-4867,-106.572982,35.320021
"Walmart Supercenter - Farmington,",#3428,1400 West Main St,Farmington,NM,87401,(505) 327-1243,-108.227519,36.732298
"Walmart Supercenter - Rio Rancho (W),",#3732,901 Uniser Blvd Southeast,Rio Rancho,NM,87124,(505) 962-9227,-106.69827,35.243272
"Walmart Supercenter - Gardnerville,",#5864,1511 Grant Ave,Gardnerville,NV,89410,(775) 552-3436,-119.721434,38.923434
"Wm Nbrhd Mkt - Las Vegas ,",#3655,10440 West Cheyenne Ave,Las Vegas,NV,89129,(702) 233-9520,-115.324326,36.219979
"Wm Nbrhd Mkt - Las Vegas ,",#5269,490 East Silverado Ranch Blvd,Las Vegas,NV,89123,(702) 263-7550,-115.608,36.014057
"Walmart Supercenter - Las Vegas (Boulder) ,",#3350,5198 Boulder Hwy,Las Vegas,NV,89122,(702) 434-5595,-115.062625,36.109256
"Wm Nbrhd Mkt - Las Vegas ,",#5258,5850 W Craig Rd,Las Vegas,NV,89130,(702) 395-1222,-115.223929,36.23998
"Walmart Supercenter - Las Vegas (SE),",#1560,6005 Eastern Ave,Las Vegas,NV,89119,(702) 451-8900,-115.121077,36.080416
"Wm Nbrhd Mkt - Las Vegas ,",#5259,6151 West Lake Mead Blvd,Las Vegas,NV,89108,(702) 631-1962,-115.225609,36.194921
"Wm Nbrhd Mkt - Las Vegas (T. Pines) ,",#3788,6310 West Charleston Blvd,Las Vegas,NV,89146,(702) 870-1220,-115.231887,36.159764
"Walmart Supercenter - Las Vegas,",#3351,6464 North Decatur Blvd,Las Vegas,NV,89131,(702) 515-7050,-115.204382,36.278266
"Wm Nbrhd Mkt - Las Vegas (Hollywood) ,",#5423,6570 East Lake Mead Blvd,Las Vegas,NV,89156,(702) 437-3590,-115.029474,36.196449
"Walmart Supercenter - Las Vegas,",#4356,7200 Arroyo Cross Pkwy,Las Vegas,NV,89113,(702) 270-6003,-115.248846,36.064002
"Wm Nbrhd Mkt - Las Vegas (Warm Springs) ,",#3356,7445 South Eastern Ave,Las Vegas,NV,89123,(702) 614-8122,-115.118757,36.054229
"Walmart Supercenter - North Las Vegas,",#3728,3950 West Lake Mead Blvd,North Las Vegas,NV,89032,(702) 631-0421,-115.19031,36.200819
"Wm Nbrhd Mkt - North Las Vegas ,",#5306,5545 Simmons St,North Las Vegas,NV,89031,(702) 646-5759,-115.181047,36.260339
"Wm Nbrhd Mkt - North Las Vegas ,",#4339,5940 Losee Rd,North Las Vegas,NV,89081,(702) 639-1202,-115.115972,36.267557
"Walmart Supercenter - Reno ,",#2106,2425 E 2nd,Reno,NV,89502,(775) 359-8200,-119.782803,39.528898
"Walmart Supercenter - Reno,",#4239,250 Vista Knoll Pkwy,Reno,NV,89506,(775) 332-0308,-119.854097,39.616261
"Walmart Supercenter - Albion,",#3607,13858 Route 31 West,Albion,NY,14411,(585) 589-0608,-78.225942,43.234855
"Walmart Supercenter - Brockport,",#1993,6265 Brockport Spencerport Rd,Brockport,NY,14420,(585) 637-6331,-77.928885,43.197127
"Walmart Supercenter - Camillus,",#2581,5399 W Genesee St,Camillus,NY,13031,(315) 487-0121,-76.272273,43.038795
"Walmart - Farmingdale (Long Island),",#5295,965 BRdhollow Rd,Farmingdale,NY,11735,(631) 752-8768,-73.420559,40.727124
"Walmart Supercenter - Fulton,",#3332,1818 State Rte 3,Fulton,NY,13069,(315) 598-1773,-76.446719,43.323679
"Walmart Supercenter - Gloversville,",#1806,329 S Kingsboro Ave Ext,Gloversville,NY,12078,(518) 725-2403,-74.322693,43.06088
"Walmart Supercenter - Greece,",#5282,3800 Dewey Ave,Greece,NY,14616,(585) 957-7382 (NOP),-77.645557,43.239857
"Walmart Supercenter - Johnson City,",#5732,2 Gannett Dr,Johnson City,NY,13790,(607)240-5040,-75.948087,42.115793
"Walmart Supercenter - Lancaster,",#5027,4975 Transit Rd,Lancaster,NY,14086,(716)206-3050,-78.69512,42.882592
"Walmart Supercenter - Macedon,",#3842,425 Route 31,Macedon,NY,14502,(315) 986-1584,-77.357913,43.065546
"Walmart Supercenter - Malone,",#3334,3222 State Route 11,Malone,NY,12953,(518) 483-5968,-74.321062,44.846558
"Walmart - Napanoch,",#4570,7500 Rte 209,Napanoch,NY,12458,(845) 647-2671,-74.371235,41.74154
"Walmart Supercenter - North Tonawanda,",#4597,866 Niagara Falls Blvd,North Tonawanda,NY,14120,(716) 243-4138,-78.840974,43.059502
"Walmart Supercenter - Potsdam,",#3329,7494 Us Hwy 11,Potsdam,NY,13676,(315) 268-6900,-75.027163,44.662492
"Walmart Supercenter - Queensbury ,",#4403,24 Quaker Ridge Blvd,Queensbury,NY,12804,(518) 746-4155,-73.613165,43.31917
"Walmart Supercenter - Waterloo ,",#1705,1860 N Rd,Waterloo,NY,13165,(315) 539-2560,-76.843359,42.908265
"Walmart Supercenter - Chardon,",#3293,223 Meadowland Dr,Chardon,OH,44024,(440) 286-2250,-81.225133,41.586155
"Walmart Supercenter - Fairfax,",#2250,4000 Red Bank Rd,Cincinnati,OH,45227,(513) 351-9818,-84.402411,39.147746
"Walmart Supercenter - Cincinnati ,",#1521,8451 Colerain Ave,Cincinnati,OH,45239,(513) 245-9458,-84.588525,39.224298
"Walmart Supercenter - Columbus,",#3812,2700 Bethel Rd,Columbus,OH,43220,(614) 326-0083,-83.089938,40.066222
"Walmart Supercenter - Cortland,",#2197,2016 Millenium Blvd,Cortland,OH,44410,(330) 372-1772,-80.773468,41.274452
"Walmart Supercenter - Defiance,",#5385,1804 North Clinton St,Defiance,OH,43512,(419) 784-2390,-84.362183,41.304816
"Walmart Supercenter - Elyria,",#4255,1000 Chestnut Commons Blvd,Elyria,OH,44035,(440) 365-0135,-82.067209,41.349857
"Walmart Supercenter - Hamilton , Gas/Diesel,",#3502,3201 Princeton Rd,Hamilton,OH,45011,(513) 869-8400,-84.507807,39.388679
"Walmart Supercenter - Lancaster,",#3792,2687 North Memorial Dr,Lancaster,OH,43130,(740) 687-0323,-82.641257,39.740484
"Walmart Supercenter - Lewis Center,",#2725,8659 Columbus Pike,Lewis Center,OH,43035,(740) 657-1341,-83.017184,40.165121
"Walmart Supercenter - Marysville , Gas/Diesel,",#1595,555 Colemans Crossing Blvd,Marysville,OH,43040,(937) 644-2800,-83.344502,40.231133
"Walmart Supercenter - Oberlin , Gas/Diesel,",#5309,46440 Us Route 20,Oberlin,OH,44074,(440) 774-6720,-82.222025,41.266461
"Walmart Supercenter - South Euclid,",#2362,1868 Warrensville Center Rd,South Euclid,OH,44121,(216) 382-1657,-81.540336,41.510437
"Walmart Supercenter - Springfield,",#2429,2100 North Bechtle Ave,Springfield,OH,45504,(937) 399-0370,-83.828755,39.951655
"Walmart Supercenter - Upper Sandusky,",#3809,1855 E Wyandot Ave,Upper Sandusky,OH,43351,(419) 294-3404,-83.232698,40.835457
"Walmart Supercenter - Washington Court House , Gas/Diesel,",#3251,1397 Leesburg Ave,Washington Court House,OH,43160,(740) 333-3171,-83.45701,39.52378
"Walmart - Westerville,",#5857,50 E Schrock Rd; I-270 Exit s9,Westerville,OH,43081,(614) 948-4402,-82.923695,40.110603
"Walmart Supercenter - Whitehall , Gas/Diesel,",#3447,3657 East Main,Whitehall,OH,43213,(614) 239-7509,-82.899636,39.95469
"Wm Nbrhd Mkt - Broken Arrow (N) , Gas/Diesel,",#3508,1770 S Elm Place,Broken Arrow,OK,74012,(918) 258-6175,-95.798512,36.033291
"Walmart Supercenter - Broken Arrow,",#4637,3900 E Hillside Dr,Broken Arrow,OK,74014,(918) 355-1024,-95.742116,36.065301
"Wm Nbrhd Mkt - Edmond ,",#2876,1301 East 2nd St.,Edmond,OK,73034,(405) 715-2587,-97.463459,35.653521
"Walmart Supercenter - Glenpool,",#4615,12200 S Waco Ave,Glenpool,OK,74033,(918) 299-8030,-96.013671,35.985038
"Wm Nbrhd Mkt - Moore ,",#2393,640 S.e. 4th St,Moore,OK,73160,(405) 794-2724,-97.478119,35.333549
"Wm Nbrhd Mkt - Norman,",#5805,3572 W Rock Creek,Norman,OK,73069,(405) 515-7283,-97.488976,35.248887
"Wm Nbrhd Mkt - Oklahoma City (NW) ,",#2877,11101 North Rockwell Ave.,Oklahoma City,OK,73162,(405) 773-3555,-97.639332,35.582433
"Wm Nbrhd Mkt - Oklahoma City ,",#2394,1500 S.w. 59th St.,Oklahoma City,OK,73119,(405) 684-9761,-97.54405,35.406063
"Walmart Supercenter - Oklahoma City,",#1626,2000 W Memorial Rd,Oklahoma City,OK,73134,(405) 752-1900,-97.546818,35.605434
"Wm Nbrhd Mkt - Oklahoma City ,",#3615,2217 Northwest 23rd St,Oklahoma City,OK,73107,(405) 521-1431,-97.547255,35.493068
"Wm Nbrhd Mkt - Oklahoma City ,",#5314,4420 South Western Ave,Oklahoma City,OK,73109,(405) 632-4497,-97.528567,35.421449
"Wm Nbrhd Mkt - Oklahoma City (NW) , Gas/Diesel,",#2875,6000 Nw 23rd St,Oklahoma City,OK,73127,(405) 495-1001,-97.620065,35.492102
"Walmart Supercenter - Oklahoma City, Gas/Diesel,",#3430,9011 Ne 23rd St,Oklahoma City,OK,73141,(405) 769-2164,-97.369391,35.494627
"Wm Nbrhd Mkt - Oklahoma City (SW) , Gas/Diesel,",#2878,911 S.w. 104th St.,Oklahoma City,OK,73139,(405) 692-3860,-97.5306,35.364373
"Wm Nbrhd Mkt - Owasso,",#5840,12912 E 86th St North,Owasso,OK,74055,(918) 274-0030,-95.82893,36.27693
"Walmart Supercenter - Stillwater,",#4241,4545 West 6th Ave,Stillwater,OK,74074,(405) 707-0744,-97.119082,36.114775
"Walmart Supercenter - Tulsa , Gas/Diesel,",#1597,10938 S. Memorial Dr.,Tulsa,OK,74133,(918) 394-4000,-95.888576,36.004616
"Wm Nbrhd Mkt - Tulsa, Gas/Diesel,",#3457,3116 South Garnett Rd,Tulsa,OK,74146,(918) 622-7797,-95.852697,36.11826
"Wm Nbrhd Mkt - Tulsa,",#3340,4720 East 21st St,Tulsa,OK,74114,(918) 392-7020,-95.923718,36.132367
"Wm Nbrhd Mkt - Tulsa (Sheridan), Gas,",#2880,6606 East 81st St. South,Tulsa,OK,74133,(918) 524-1435,-95.903062,36.045447
"Wm Nbrhd Mkt - Tulsa,",#2395,9411 So Delaware Ave,Tulsa,OK,74137,(918) 299-8316,-95.948229,36.025475
"Wm Nbrhd Mkt - Beaverton,",#5993,17275 NW Cornell Rd,Beaverton,OR,97006,(503) 207-7627:,-122.852987,45.534987
"Wm Nbrhd Mkt - Beaverton,",#3097,8235 SW Apple Way,Beaverton,OR,97225,(503) 205-9970,-122.761832,45.48585
"Wm Nbrhd Mkt - Beaverton,",#3050,9055 SW Murray Blvd,Beaverton,OR,97008,(503) 207-9915,-122.826766,45.454809
"Walmart Supercenter - Cornelius,",#4221,220 N Adair St,Cornelius,OR,97113,(503)207-0626,-123.068903,45.521841
"Wm Nbrhd Mkt - Corvallis,",#3146,1840 NW 9th St,Corvallis,OR,97330,(541) 224-0036,-123.256612,44.585874
"Walmart Supercenter - Eagle Point,",#5424,11500 Hannon Rd,Eagle Point,OR,97524,(541) 826-2210,-122.813625,42.47027
"Wm Nbrhd Mkt - Gresham,",#3178,2444 E Powell Blvd,Gresham,OR,97080,(503) 492-4725,-122.407652,45.49342
"Wm Nbrhd Mkt - Gresham,",#5627,3900 W Powell Blvd,Gresham,OR,97030,(503) 405-1478,-122.473185,45.488218
"Wm Nbrhd Mkt - Lake Oswego,",#5995,17711 Jean Way,Lake Oswego,OR,97035,(503) 303-1032,-122.738736,45.397896
"Walmart Supercenter - Medford,",#2069,1360 Center Dr,Medford,OR,97501,(541) 535-9170,-122.855156,42.310085
"Wm Nbrhd Mkt - Milwaukie,",#3144,15600 SE Mcloughlin Blvd,Milwaukie,OR,97267,(503) 303-6755,-122.626473,45.410744
"Walmart Supercenter - Portland,",#5899,1123 Hayden Meadows Dr,Portland,OR,97217,(503) 205-8844,-122.678869,45.595279
"Wm Nbrhd Mkt - West Linn,",#5994,19133 Williamette Dr,West Linn,OR,97068,(503) 303-1094,-122.641295,45.386579
"Walmart Supercenter - Economy,",#4643,1500 Economy way,Baden,PA,15005,(724) 390-9016,-80.230733,40.658661
"Walmart Supercenter - Corry,",#2909,961 East Columbus Ave,Corry,PA,16407,(814) 663-8070,-79.612103,41.933191
"Walmart Supercenter - East Greenville ,",#3810,620 Gravel Pike,East Greenville,PA,18041,(215) 679-2782,-75.509814,40.411475
"Walmart Supercenter - Elizabethville,",#3412,200 Kocher Lane,Elizabethville,PA,17023,(717) 362-3696,-76.791626,40.556786
"Walmart Supercenter - Hamburg,",#4612,1800 Tilden Ridge,Hamburg,PA,19526,(484) 668-4001,-76.011335,40.563428
"Walmart Supercenter - Hanover (S),",#5469,1881 Baltimore Pike,Hanover,PA,17331,(717) 630-8211,-76.960709,39.761346
"Walmart Supercenter - Irwin,",#5241,915 Mills Dr; I-76 Exit 67,Irwin,PA,15642,(724) 382-3160,-79.687268,40.315952
"Walmart Supercenter - Levittown,",#2068,180 Levittown Pkwy,Levittown,PA,19055,(215) 949-6600,-74.821341,40.142337
"Walmart Supercenter - Natrona Heights,",#3738,4015 Freeport Rd,Natrona Heights,PA,15065,(724) 226-6949,-79.711582,40.646822
"Walmart Supercenter - Oxford,",#5795,800 Commons DR,Oxford,PA,19363,(484) 702-7206,-75.975679,39.798359
"Walmart Supercenter - Tamaqua,",#3634,35 Plaza Dr - Route 309 N,Tamaqua,PA,18252,(570) 668-2054,-75.988505,40.835802
"Walmart Supercenter - Temple,",#2614,5370 Allentown Pike,Temple,PA,19560,(610) 939-0601,-75.919935,40.416763
"Walmart Supercenter - Warren,",#3429,2901 Market St,Warren,PA,16365,(814) 723-2640,-79.150993,41.881456
"Walmart Supercenter - Waynesboro,",#3633,12751 Washington Township Blvd,Waynesboro,PA,17268,(717) 762-2282,-77.528673,39.74163
"Walmart Supercenter - West Brownsville,",#4501,134 Daniel Kendall Dr,West Brownsville,PA,15417,(724) 364-4076,-79.889433,40.027853
"Walmart Supercenter - Willow Grove,",#3564,2101 Blair Mill Rd,Willow Grove,PA,19090,(215) 830-8370,-75.138505,40.159201
"Walmart Supercenter - York ,",#2205,1800 Loucks Rd Suite 100,York,PA,17408,(717) 764-1485,-76.772174,39.96771
"Walmart - Matane,",#1025,150 Rue Piuze,Matane,QC,G4W 4T,(418) 566-4779,-67.55647,48.84406
"Walmart Supercenter - North Smithfield,",#2225,7 Eddie Dowling Hwy,North Smithfield,RI,02896,(401) 766-1961,-71.505949,41.97689
"Walmart Supercenter - Aiken,",#4487,3581 Richland Ave Sw,Aiken,SC,29803,(803) 648-5551,-81.766105,33.561374
"Walmart Supercenter - Bennettsville,",#4457,1250 Hwy 9,Bennettsville,SC,29512,(843) 479-0002,-79.702823,34.639465
"Walmart Supercenter - Charleston (W) , Gas/Diesel,",#1748,3951 W Ashley Circle,Charleston,SC,29414,(843) 763-5554,-80.081003,32.822709
"Walmart Supercenter - Conway,",#4664,151 Myrtle Ridge Rd,Conway,SC,29526,(843) 234-2040,-78.984717,33.77473
"Walmart Supercenter - Easley,",#0631,115 Rolling Hills Circle,Easley,SC,29640,(864) 859-8595,-82.549324,34.828832
"Walmart Supercenter - Greenville,",#3192,11410 Anderson Rd,Greenville,SC,29611,(864) 605-6039,-82.480918,34.789314
"Wm Nbrhd Mkt - Greer,",#4145,805 West Wade Hampton Blvd,Greer,SC,29650,(864) 655-6422,-82.247634,34.944806
"Walmart Supercenter - Indian Land,",#4237,10048 Charlotte Hwy,Indian Land,SC,29707,(803)802-6666,-80.850053,35.011767
"Walmart Supercenter - Irmo, Gas/Diesel,",#4440,1180 Dutch Fork Rd,Irmo,SC,29063,(803)781-7775,-81.220937,34.126402
"Walmart Supercenter - Lake Wylie,",#5745,175 Hwy 274,Lake Wylie,SC,29710,(803)619-7021,-81.08418,35.121376
"Walmart Supercenter - Leesville,",#4420,115 E Church St,Leesville,SC,29070,(803) 532-5332,-81.523033,33.916224
"Walmart Supercenter - Lexington,",#4521,1780 S Lake Dr,Lexington,SC,29073,(803) 957-2557,-81.228604,33.910994
"Walmart Supercenter - Mount Pleasant,",#4384,3000 Proprietors Place,Mount Pleasant,SC,29466,(843) 884-2844,-79.787057,32.862275
"Walmart Supercenter - Mullins,",#1829,305 Commerce Dr,Mullins,SC,29574,(843) 423-9444,-79.344727,34.184362
"Walmart Supercenter - Murrells Inlet,",#5705,545 Garden City Connector,Murrells Inlet,SC,29576,(843)357-6560,-79.010596,33.588947
"Wm Nbrhd Mkt - Surfside Beach,",#2887,125 Mayport Dr,Myrtle Beach,SC,29575,(843) 232-0485,-78.980952,33.653464
"Walmart Supercenter - Newport,",#4593,4875 Old York Rd,Rock Hill,SC,29732,(803) 323-2080,-81.089257,34.980262
"Walmart Supercenter - Taylors , Gas/Diesel,",#1244,3027 Wade Hampton Blvd.,Taylors,SC,29687,(864) 292-8155,-82.33118,34.907882
"Walmart Supercenter - Tega Cay,",#3733,1151 Stone Crest Blvd,Tega Cay,SC,29708,(803) 578-4140,-80.993847,35.046753
"Walmart Supercenter - Huron,",#3853,2791 Dakota Ave South,Huron,SD,57350,(605) 353-0891,-98.215784,44.331828
"Walmart Supercenter - Rapid City,",#3872,100 Stumer Rd,Rapid City,SD,57701,(605) 877-3291,-103.219428,44.033428
"Wm Nbrhd Mkt - Bartlett (Memphis) , Gas/Diesel,",#3599,6520 Memphis-arlington Rd,Bartlett,TN,38135,(901) 388-1004,-89.844746,35.228183
"Walmart Supercenter - Chattanooga (Signal),",#3659,501 Signal Mountain Rd,Chattanooga,TN,37405,(423) 756-7202,-85.330685,35.094098
"Walmart Supercenter - Dunlap , Gas/Diesel,",#4226,16773 Rankin Ave,Dunlap,TN,37327,(423) 949-7778,-85.381245,35.385855
"Walmart Supercenter - Johnson City (S) , Gas/Diesel,",#3829,2915 West Market St,Johnson City,TN,37604,(423) 434-2250,-82.405209,36.309277
"Walmart Supercenter - Maryville, Gas/Diesel,",#4223,2410 Us Hwy 411 South,Maryville,TN,37803,(865) 982-3660,-84.013435,35.715476
"Wm Nbrhd Mkt - Memphis , Gas/Diesel,",#5122,2856 Hickory Hill Ext,Memphis,TN,38115,(901) 362-3622,-89.863335,35.07023
"Wm Nbrhd Mkt - Nashville (Mckennie),",#3306,1220 Gallatin Ave,Nashville,TN,37206,(615) 226-4443,-86.745485,36.19168
"Walmart Supercenter - Nashville,",#3717,4040 Nolensville Pike,Nashville,TN,37211,(615) 831-0133,-86.725477,36.081453
"Wm Nbrhd Mkt - Nashville,",#5119,5531 Edmondson Pike,Nashville,TN,37211,(615) 834-7771,-86.744974,36.041919
"Walmart Supercenter - Oakland,",#4533,105 Chickasaw Ridge Dr,Oakland,TN,38060,(901) 465-0225,-89.522479,35.226716
"Walmart Supercenter - Smithville,",#4414,515 BRd St,Smithville,TN,37166,(615) 215-7550,-85.829313,35.95554
"Wm Nbrhd Mkt - Allen (NE),",#3574,1520 Exchange Pkwy,Allen (ne),TX,75002,(214) 547-8579,-96.629711,33.114364
"Walmart Supercenter - Allen,",#2918,730 W Exchange Pkwy,Allen,TX,75013,(972) 649-0356,-96.672146,33.118978
"Wm Nbrhd Mkt - Arlington,",#5613,2121 N Collins St,Arlington,TX,76011,(817) 505-1386,-97.096651,32.7677
"Wm Nbrhd Mkt - Arlington, Gas,",#2977,735 West Sublett Rd,Arlington,TX,76017,(817) 557-8001,-97.116889,32.645633
"Walmart Supercenter - Austin,",#4554,2525 W Anderson Ln,Austin,TX,78757,(512) 354-3702,-97.734528,30.355931
"Walmart Supercenter - Austin,",#5478,8201 North Fm 620,Austin,TX,78726,(512) 249-6666,-97.843946,30.41675
"Wm Nbrhd Mkt - Bedford , Gas/Diesel,",#3392,2108 Bedford Rd,Bedford,TX,76021,(817) 283-9841,-97.134893,32.844663
"Wm Nbrhd Mkt - Bryan,",#4126,1901 S Texas Ave,Bryan,TX,77802,(979) 599-5322,-96.36092,30.651717
"Walmart Supercenter - Bryan,",#4183,643 N Harvy Mitchell Pkwy,Bryan,TX,77807,(979) 599-5877,-96.378217,30.632658
"Wm Nbrhd Mkt - Carrollton,",#3198,4025 Old Denton Rd,Carrollton,TX,75007,(469) 557-7714,-96.916033,33.01862
"Walmart Supercenter - Cedar Park,",#4163,2801 E #Whitestone Blvd,Cedar Park,TX,78613,(512) 690-9340,-97.786328,30.534195
"Wm Nbrhd Mkt - Colleyville,",#5614,4904 Colleyville Blvd,Colleyville,TX,76034,(817) 770-8334,-97.156413,32.881957
"Walmart Supercenter - Corpus Christi,",#0490,1250 Flour Bluff Dr,Corpus Christi,TX,78418,(361) 937-2643,-97.299337,27.6737
"Walmart Supercenter - Corpus Christi,",#1494,4109 S Staples St,Corpus Christi,TX,78411,(361) 994-9010,-97.381846,27.728286
"Walmart Supercenter - Corpus Christi,",#5898,6101 Saratoga Rd,Corpus Christi,TX,78412,(361) 445-3240,-97.374307,27.678538
"Walmart Supercenter - Cross Roads,",#5707,11700 Hwy 380,Cross Roads,TX,76227,(940) 488-7088,-96.983808,33.226206
"Walmart Supercenter - Crowley ,",#3631,1221 FM 1187; I-35 Exit,Crowley,TX,76036,(682) 233-7834,-97.338653,32.576217
"Wm Nbrhd Mkt - Cypress,",#3506,13742 North Eldridge Pkwy,Cypress,TX,77429,(281) 655-0302,-95.610397,29.981832
"Walmart Supercenter - Dallas (Midpark),",#5931,13739 N Central Expy; Hwy 75 Exit 22/23,Dallas,TX,75243,(972) 656-2501 (NOP),-96.752258,32.936741
"Wm Nbrhd Mkt - Dallas,",#3171,2218 Greenville Ave,Dallas,TX,75206,(972) 581-0188,-96.769849,32.816556
"Wm Nbrhd Mkt - Dallas (gus), Gas,",#5021,2275 Gus Thomasson Rd,Dallas,TX,75228,(214) 660-9579,-96.676528,32.83503
"Wm Nbrhd Mkt - Dallas (Hall),",#3341,2305 North Central Expressway,Dallas,TX,75204,(214) 953-0460,-96.793625,32.800953
"Wm Nbrhd Mkt - Pleasant Grove,",#3015,2827 S Buckner Blvd,Dallas,TX,75227,(214) 775-0787,-96.682896,32.759478
"Walmart Supercenter - Dallas,",#5823,6185 Retail Rd,Dallas,TX,75231,(972) 656-2196 (NOP),-96.753897,32.86261
"Walmart Supercenter - Dallas,",#5889,9410 Webb Chapel Rd,Dallas,TX,75220,(972) 629-0007,-96.858155,32.861836
"Walmart Supercenter - Desoto , Gas/Diesel,",#3432,951 West Belt Line Rd,Desoto,TX,75115,(972) 223-1711,-96.879576,32.591821
"Walmart Supercenter - Edinburg,",#5809,2812 S Expressway 281,Edinburg,TX,78542,(956) 252-2047,-98.152276,26.272001
"Walmart Supercenter - Edinburg (S) , Gas/Diesel,",#3886,4101 South Mccall Rd,Edinburg,TX,78539,(956) 618-2018,-98.203128,26.267481
"Walmart Supercenter - El Paso (NE), Gas,",#2612,1850 N Saragos,El Paso,TX,79925,(915) 855-6405,-106.270724,31.75689
"Wm Nbrhd Mkt - El Paso , Gas/Diesel,",#5108,3000 Saul Kleinfeld Dr,El Paso,TX,79936,(915) 849-7796,-106.283601,31.783238
"Wm Nbrhd Mkt - El Paso,",#5962,4716 Honda Pass Dr,El Paso,TX,79904,(915) 245-3573,-106.432189,31.869169
"Walmart Supercenter - El Paso,",#5947,5631 Dyer St,El Paso,TX,79904,(915) 245-3510 (NOP),-106.446184,31.829084
"Wm Nbrhd Mkt - El Paso,",#4415,8115 N Loop,El Paso,TX,79907,(915) 629-0048,-106.345358,31.728455
"Wm Nbrhd Mkt - El Paso,",#4366,951 N Resler,El Paso,TX,79912,(915) 875-0124,-106.559042,31.860492
"Walmart Supercenter - Elgin,",#3170,1320 W Hwy 290,Elgin,TX,78621,(512) 285-3397,-97.388815,30.349688
"Wm Nbrhd Mkt - Flower Mound,",#5963,2800 Flower Mound Rd,Flower Mound,TX,75022,(972) 538-0355,-97.071961,33.015496
"Walmart  supercenter - Fort Worth,",#3044,2900 Renaissance Square,Fort Worth,TX,76105,(817) 900-1909,-97.283818,32.711799
"Wm Nbrhd Mkt - Fort Worth (Vickery) , Gas/Diesel,",#3419,6756 West Vickery Blvd,Fort Worth,TX,76116,(817) 732-2130,-97.428004,32.70279
"Wm Nbrhd Mkt - Fort Worth,",#3135,717 W Berry St,Fort Worth,TX,76110,(817) 840-0262,-97.332359,32.704443
"Wm Nbrhd Mkt - Fort Worth (NE), Gas,",#2979,7401 Park Vista Blvd,Fort Worth,TX,76137,(817) 605-0416,-97.269162,32.874737
"Walmart Supercenter - Fort Worth (N) , Gas/Diesel,",#2980,8520 North Beach St,Fort Worth,TX,76248,(817) 514-9793,-97.28755,32.89382
"Walmart Supercenter - Frisco,",#3777,12220 Fm-423,Frisco,TX,75034,(469) 362-8542,-96.885025,33.179725
"WM Nbrhd Mkt - Frisco,",#5986,4268 Legacy Dr,Frisco,TX,75034,(972) 624-6002,-96.83803,33.114804
"Walmart Supercenter - Frisco,",#5866,8555 Preston Rd,Frisco,TX,75034,(469) 237-3768 (NOP),-96.80639,33.147183
"Wm Nbrhd Mkt - Garland,",#2433,101 W Buckingham Rd,Garland,TX,75040,(469) 304-3399,-96.631759,32.931274
"Wm Nbrhd Mkt - Garland,",#4046,1855 S Garland Ave; I-635 Exit 12,Garland,TX,75040,(972) 535-1192,-96.649248,32.895642
"Walmart Supercenter - Helotes,",#3057,12550 Leslie Rd,Helotes,TX,78023,(210) 507-4979,-98.681099,29.558686
"Walmart Supercenter - Hickory Creek/Denton , Gas/Diesel,",#3286,1035 Hickory Creek Blvd,Hickory Creek,TX,75065,(940) 321-5363,-97.045198,33.127946
"Walmart Supercenter - Highland Village,",#4240,3060 Fm 407,Highland Village,TX,75077,(972) 317-4951,-97.0782,33.0757
"Walmart Supercenter - Horizon City,",#3136,13900 Horizon Blvd,Horizon City,TX,79928,(915) 206-6199,-106.201424,31.68188
"Walmart Supercenter - Houston,",#5959,111 Yale St,Houston,TX,77007,(713) 860-0700,-95.39941,29.772991
"Walmart Supercenter - Houston,",#3640,1118 Silber Rd,Houston,TX,77055,(713) 797-2245,-95.46639,29.788713
"Wm Nbrhd Mkt - Houston , Gas/Diesel,",#3542,11242 South Gessner Rd,Houston,TX,77071,(713) 771-4740,-95.529347,29.656775
"Wm Nbrhd Mkt - Houston (Beechnut) , Gas/Diesel,",#3509,11755 Beechnut St,Houston,TX,77072,(832) 328-1638,-95.585904,29.68814
"Walmart Supercenter - Houston (NW) ,",#4416,13003 Tomball Pkwy,Houston,TX,77086,(281) 668-2952 (NOP),-95.486893,29.913875
"Wm Nbrhd Mkt - Houston , Gas/Diesel,",#3451,2740 Gessner Rd,Houston,TX,77080,(713) 934-9088,-95.544588,29.821265
"Wm Nbrhd Mkt - Houston , Gas/Diesel,",#3452,4810 Hwy 6 North,Houston,TX,77084,(281) 859-0085,-95.644862,29.84482
"Wm Nbrhd Mkt - Houston (Longpoint) , Gas/Diesel,",#3578,7960 Long Point Rd,Houston,TX,77055,(713) 463-6922,-95.486396,29.803731
"Wm Nbrhd Mkt - Houston,",#5094,9700 Hillcroft St,Houston,TX,77096,(713) 283-7186,-95.494874,29.674392
"Walmart Supercenter - Humble, Gas/Diesel,",#4298,9235 North Sam Houston Pkwy E,Humble,TX,77396,(281) 441-2209,-95.25175,29.9354
"Walmart Supercenter - Katy, Gas/Diesel,",#4538,6060 North Fry Rd,Katy,TX,77449,(281) 550-4446,-95.7185,29.8602
"Walmart Supercenter - Kaufman,",#4164,300 Kings Fort Pkwy,Kaufman,TX,75142,(469) 595-7068,-96.309086,32.570177
"Wm Nbrhd Mkt - Keller,",#2981,2130 Ruf Snow Dr,Keller,TX,76248,(817) 427-0413,-97.23924,32.893266
"Walmart Supercenter - Kenedy,",#0524,200 Business Park Dr,Kenedy,TX,78119,(830) 583-9825,-97.865251,28.83394
"Wm Nbrhd Mkt - Kingwood (Houston),",#3579,2165 Northpark Dr,Kingwood,TX,77399,(281) 358-9992,-95.214745,30.069385
"Walmart Supercenter - Laredo (S) , Gas/Diesel,",#3623,4401 Hwy 83 South,Laredo,TX,78046,(956) 727-0492,-99.475121,27.45347
"Walmart Supercenter - League City , Gas/Diesel,",#5388,1701 West Fm 646,League City,TX,77573,(281) 337-9700,-95.089622,29.469153
"Walmart Supercenter - Lubbock , Gas/Diesel,",#4299,6315 82nd St,Lubbock,TX,79424,(806) 698-6394,-101.955178,33.517433
"Walmart Supercenter - Lucas,",#5672,2662 W Lucas Rd,Lucas,TX,75002,(469) 675-8801,-96.618395,33.087349
"Walmart Supercenter - Manor,",#3169,11923 Hwy 290 E,Manor,TX,78653,(512) 651-9100,-97.542472,30.348277
"Wm Nbrhd Mkt - Mansfield, Gas,",#2397,2951 Matlock Rd,Mansfield,TX,76063,(817) 453-5616,-97.116112,32.605417
"Walmart Supercenter - McKinney (NW), Gas/Diesel,",#5311,1721 North Custer,Mckinney,TX,75071,(972) 548-7270,-96.734134,33.216796
"Wm Nbrhd Mkt - Mesquite (E),",#2976,915 North Town East Blvd,Mesquite,TX,75150,(972) 613-4253,-96.609563,32.812724
"Walmart Supercenter - Midlothian, Gas/Diesel,",#4279,400 North Hwy 67,Midlothian,TX,76065,(972) 775-6755,-97.006731,32.485472
"Walmart Supercenter - Missouri City,",#5449,9929 Hwy 6,Missouri City,TX,77459,(281) 835-0001,-95.512735,29.534232
"Wm Nbrhd Mkt - Murphy , Gas/Diesel,",#2973,150 West Fm 544,Murphy,TX,75094,(972) 633-0257,-96.614755,33.010791
"Wm Nbrhd Mkt - Pantego,",#3594,2610 West Pioneer Pkwy,Pantego,TX,76013,(817) 303-4468,-97.150224,32.708882
"Walmart Supercenter - Penitas,",#4508,1705 W. Expressway 83,Penitas,TX,78576,(956) 580-6840,-98.44271,26.245119
"Walmart Supercenter - Pflugerville , Gas/Diesel,",#5479,1548 Fm 685,Pflugerville,TX,78660,(512) 252-0112,-97.605564,30.45291
"Wm Nbrhd Mkt - Plano,",#5657,3100 Custer Rd,Plano,TX,75075,(972) 244-6714,-96.732523,33.039481
"Wm Nbrhd Mkt - Plano,",#3199,3513 E Park Blvd,Plano,TX,75074,(469) 304-3143,-96.666082,33.03205
"Wm Nbrhd Mkt - Plano (E) , Gas/Diesel,",#2995,8040 Independence Pkwy,Plano,TX,75025,(972) 396-6401,-96.748513,33.0874048
"Walmart Supercenter - Quinlan , Gas/Diesel,",#4215,8801 Hwy 34 S,Quinlan,TX,75474,(903) 356-1000,-96.126394,32.908893
"Walmart Supercenter - Red Oak,",#3433,100 Ryan Dr,Red Oak,TX,75154,(972) 515-2062,-96.816486,32.533455
"Wm Nbrhd Mkt - Richardson,",#2974,1501 East Buckingham Rd,Richardson,TX,75081,(972) 235-9389,-96.697346,32.932104
"Wm Nbrhd Mkt - Richardson,",#5074,430 North Coit Rd,Richardson,TX,75080,(972) 235-0681,-96.767767,32.957088
"Walmart Supercenter - Richmond,",#3827,5660 Grand Dr W,Richardson,TX,77469,(832) 595-0322,-95.77306,29.689675
"Wm Nbrhd Mkt - Rockwall (S),",#3530,850 West Rusk St,Rockwall,TX,75087,(972) 722-1217,-96.467771,32.930876
"Walmart Supercenter - Round Rock (NE), Gas/Diesel,",#5480,4700 East Palm Valley Blvd,Round Rock,TX,78665,(512) 218-1018,-97.612511,30.533643
"Walmart Supercenter - San Antonio, Gas/Diesel,",#3888,11210 Potranco Rd,San Antonio,TX,78253,(210) 679-7184,-98.714718,29.433729
"Wm Nbrhd Mkt - San Antonio,",#5290,1515 S Ellison Dr,San Antonio,TX,78245,(210) 276-2012,-98.679102,29.417308
"Walmart Supercenter - San Antonio,",#3112,4096 N Foster Rd; I-10 Exit 582/583,San Antonio,TX,78244,(210) 507-4958,-98.357738,29.465441
"Wm Nbrhd Mkt - Socorro,",#5960,10301 Alameda Ave,Socorro,TX,79927,(915) 245-3488,-106.289865,31.654584
"Wm Nbrhd Mkt - Southlake,",#5985,2201 W Southlake Blvd,Southlake,TX,76092,(817) 601-0915,-97.184353,32.937679
"Walmart Supercenter - Spring, Gas/Diesel,",#3390,10001 Woodlands Pkwy,Spring,TX,77382,(281) 419-0162,-95.58778,30.191523
"Walmart Supercenter - Spring, Gas/Diesel,",#0602,1025 Sawdust Rd,Spring,TX,77380,(281) 298-4306,-95.4566364,30.1265554
"Walmart Supercenter - Spring , Gas/Diesel,",#5287,21150 Kuyendahl Rd,Spring,TX,77379,(281) 288-6437,-95.51279,30.076102
"Wm Nbrhd Mkt - Tyler,",#4193,1900 E SE Loop 323,Tyler,TX,75703,(903) 508-6121,-95.276996,32.310892
"Walmart Supercenter - Victoria,",#4194,4101 Houston Hwy,Victoria,TX,77901,(361) 827-7272,-96.960828,28.817339
"Walmart Supercenter - Wichita Falls (SE), Gas/Diesel,",#0414,5131 Greenbriar Rd,Wichita Falls,TX,76302,(940) 397-9650,-98.500533,33.851253
"Walmart Supercenter - Cedar Hills,",#4689,4689 W. Cedar Hills Dr,Cedar Hills,UT,84067,(801) 756-2372,-111.771355,40.416419
"Wm Nbrhd Mkt - Draper,",#5110,1360 East Draper Pkwy,Draper,UT,84020,(801) 816-0838,-111.851362,40.526713
"Walmart Supercenter - Harrisville,",#2921,534 Harrisville Rd,Harrisville,UT,84404,(801) 737-0092,-111.972964,41.268526
"Walmart Supercenter - Heber City,",#4696,1274 South Hwy 189,Heber City,UT,84032,(435) 709-3015,-111.416502,40.493617
"Walmart Supercenter - Hurricane,",#4678,180 North 3400 West,Hurricane,UT,84737,(435) 635-6945,-113.364991,37.171111
"Wm Nbrhd Mkt - Layton,",#5205,1356 East Hwy 193,Layton,UT,84040,(801) 771-2987,-111.940413,41.10042
"Walmart Supercenter - Logan,",#4272,1150 S 100 W,Logan,UT,84321,(435) 752-2111,-111.83729,41.711938
"Wm Nbrhd Mkt - Provo,",#4100,2255 N University Pkwy,Provo,UT,84604,(385) 219-3070,-111.669248,40.263381
"Walmart Supercenter - Riverton,",#3620,13502 South Hamilton View Rd,Riverton,UT,84065,(801) 446-2986,-111.978412,40.506086
"Walmart Supercenter - Salt Lake City,",#4208,2705 E Parleys Way,Salt Lake City,UT,84109,(385) 313-3942,-111.813249,40.719195
"Walmart Supercenter - Sandy,",#5235,9151 South Quarry Blvd,Sandy,UT,84094,(801) 352-4200,-111.860715,40.585305
"Walmart Supercenter - Saratoga Springs,",#4438,136 W Cedar Fort Rd (sr 73),Saratoga Springs,UT,84045,(801)766-4272,-111.919488,40.388355
"Walmart Supercenter - South Jordan,",#5763,3590 W South Jordan Pkwy,South Jordan,UT,84095,(801) 601-3098,-111.97541,40.562829
"Wm Nbrhd Mkt - South Jordan,",#5120,3706 West 9800 South,South Jordan,UT,84095,(801) 282-5725,-111.979037,40.574033
"Wm Nbrhd Mkt - South Ogden,",#5206,1710 Skyline Dr,South Ogden,UT,84405,(801) 479-0366,-111.937782,41.152061
"Walmart Supercenter - Syracuse,",#3848,2228 West 1700 South,Syracuse,UT,84075,(801) 775-9688,-112.068088,41.090391
"Wm Nbrhd Mkt - West Valley City ,",#5109,4570 South 4000 West,West Valley City,UT,84120,(801) 969-1105,-111.988393,40.67048
"Walmart Supercenter - Alta Vista,",#3768,125 Clarion Rd,Altavista,VA,24517,(434) 309 2245,-79.268776,37.143123
"Walmart Supercenter - Appomattox,",#4636,505 Oakville Rd,Appomattox,VA,24522,(434) 352-6066,-78.838853,37.365397
"Walmart Supercenter - Chantilly,",#5969,4368 Chantilly Shopping Center,Chantilly,VA,20151,(571) 392-3081,-77.443068,38.888357
"Walmart Supercenter - Chesapeake,",#3644,201 Hillcrest Pkwy,Chesapeake,VA,23322,(757) 421-3689 (NOP),-76.232503,36.6558
"Walmart Supercenter - Chesterfield,",#4476,14501 Hancock Village St,Chesterfield,VA,23832,(804) 739-2119,-77.677142,37.401172
"Walmart Supercenter - Farmville,",#1486,1800 Perry Dr & St Hwy 684,Farmville,VA,23901,(434) 392-5334,-78.401018,37.278448
"Walmart Supercenter - Fredericksburg,",#4258,11 Village Pkwy,Fredericksburg,VA,22406,(540) 752-2125,-77.528713,38.370051
"Walmart Supercenter - Front Royal ,",#5105,10 Riverton Commons Dr,Front Royal,VA,22630,(540) 635-4140,-78.18695,38.96108
"Walmart Supercenter - Grundy,",#3303,1179 Riverview St,Grundy,VA,24614,(276) 244-3007,-82.10183,37.27815
"Walmart Supercenter - Haymarket,",#3077,6530 Trading Sq; I-66 Exit 40,Haymarket,VA,20169,(703) 468-2445,-77.645291,38.816801
"Walmart Supercenter - Jonesville,",#3772,Rr #2 Box 3160,Jonesville,VA,24263,(276) 346-2860,-83.100973,36.726402
"Walmart Supercenter - Kilmarnock,",#4350,200 Old Fair Grounds Way,Kilmarnock,VA,22482,(804) 435-6148,-76.388081,37.727171
"Walmart Supercenter - King George,",#5779,16735 Merchant Ln,King George,VA,22448,(540) 413-3037,-77.055913,38.35096
"Walmart - Locust Grove,",#5731,2533 Germanna Hwy,Locust Grove,VA,22508,(540) 317-2185,-77.769575,38.37193
"Walmart Supercenter - Lynchburg,",#4697,3227 Old Forest Rd,Lynchburg,VA,24501,(434)200-9132,-79.21057,37.411493
"Walmart Supercenter - Midlothian,",#2808,12200 Chattanooga Plaza,Midlothian,VA,23112,(804) 744-8437,-77.620664,37.430976
"Wm Nbrhd Mkt - Newport News,",#3157,11214 Jefferson Ave,Newport News,VA,23601,(757) 327-7473,-76.466199,37.060728
"Walmart Supercenter - Newport News,",#4623,6111 Jefferson Ave,Newport News,VA,23605,(757) 637-4205,-76.446952,37.02143
"Wm Nbrhd Mkt - Norfolk,",#5755,1720 E Little Creek Rd,Norfolk,VA,23502,(757) 480-0654,-76.228201,36.917616
"Walmart Supercenter - Onley,",#4378,26036 Lankford Hwy,Onley,VA,23418,(757)302-4089,-75.723095,37.685893
"Walmart Supercenter - Powhatan,",#5847,1950 Anderson Hwy,Powhatan,VA,23139,(804) 464-9887,-77.777952,37.511999
"Walmart Supercenter - Richmond,",#3869,1504 North Parham Rd,Richmond,VA,23229,(804) 270-6034,-77.565123,37.603767
"Walmart Supercenter - Richmond,",#4191,6920 Forest Ave; I-64 Exit 183,Richmond,VA,23230,(804) 774-2236,-77.524932,37.602925
"Walmart Supercenter - Roanoke,",#1301,5350 Clearbrook Village Ln,Roanoke,VA,24014,(540) 772-3892,-79.950935,37.206587
"Walmart Supercenter - Ruckersville,",#4638,135 Stoneridge Dr,Ruckersville,VA,22968,(434)990-6013,-78.371907,38.235178
"Walmart Supercenter - Stuart,",#3770,19265 Jeb Stuart Hwy,Stuart,VA,24171,(276) 694-2520,-80.246264,36.641089
"Walmart Supercenter - Tysons Corner,",#5936,1500B Cornerside Blvd,Vienna,VA,22182,(571) 623-3300,-77.243829,38.930065
"Wm Nbrhd Mkt - Virginia Beach,",#4220,3201 Holland Rd,Virginia Beach,VA,23453,(757) 821-7674,-76.082161,36.791126
"Wm Nbrhd Mkt - Williamsburg,",#5754,4670 Casey Blvd,Williamsburg,VA,23188,(757) 603-4600,-76.751098,37.275702
"Walmart Supercenter - Winchester,",#4514,201 Maranto Manor Dr,Winchester,VA,22602,(540) 868-5076,-78.149459,39.083417
"Walmart - St Albans,",#2332,700 Tuckers Way; I-89 Exit 20,St Albans,VT,05478,(802) 528-4110,-73.085474,44.842785
"Walmart Supercenter - Battle Ground,",#5929,1201 SW 13th Ave,Battle Ground,WA,98604,(360) 723-9004,-122.545707,45.769973
"Walmart Supercenter - Bellevue,",#5939,12620 SE 41st Place,Bellevue,WA,98006,(425) 201-7543,-122.173958,47.572408
"Wm Nbrhd Mkt - Bellevue,",#3098,15063 Main St,Bellevue,WA,98007,(425) 643-9054,-122.141406,47.609066
"Walmart Supercenter - Chelan ,",#3754,108 Apple Blossom Dr,Chelan,WA,98816,(509) 682-4291,-119.989052,47.842553
"Walmart Supercenter - Clarkston,",#2006,306 5th St,Clarkston,WA,99403,(509) 758-8532,-117.047849,46.422968
"Walmart - Everett (W) ,",#5195,11400 Evergreen Way/hwy 99,Everett,WA,98204,(425) 923-1740,-122.256612,47.89359
"Walmart Supercenter - Lakewood ,",#3537,7001 Bridgeport Way West,Lakewood,WA,98499,(253) 512-0949,-122.518093,47.194009
"Walmart Supercenter - Longview,",#2469,540 7th Ave,Longview,WA,98632,(360) 414-9665,-122.931071,46.11965
"Wm Nbrhd Mkt - Lynnwood,",#5678,17222 Hwy 99,Lynnwood,WA,98037,(425) 245-0795,-122.299307,47.841795
"Walmart Supercenter - Marysville ,",#3801,8713 64th St NE,Marysville,WA,98270,(360) 386-3004,-122.108989,48.054309
"Walmart Supercenter - Pullman,",#1870,1690 SE Harvest Dr,Pullman,WA,99163,(509) 334-2990,-117.03567,46.733951
"Walmart Supercenter - Puyallup (S),",#3525,16502 Meridan Ave. East,Puyallup,WA,98375,(253) 446-1741,-122.295427,47.106052
"Walmart Supercenter - Spokane Valley,",#5883,5025 E Sprague Ave,Spokane Valley,WA,99212,(509) 795-3491,-117.336406,47.658608
"Walmart Supercenter - Spokane,",#4394,1221 S Hayford Rd,Spokane,WA,99224,(509) 459-0602,-117.558307,47.644452
"Wm Nbrhd Mkt - Tacoma,",#4137,1965 S Union Ave,Tacoma,WA,98405,(253) 414-9526,-122.480896,47.239844
"Walmart Supercenter - Tumwater,",#3850,5900 Littlerock Rd SW,Tumwater,WA,98512,(360) 350-6019,-122.920221,46.994693
"Wm Nbrhd Mkt - Vancouver,",#3052,7809 NE Vanvouver Plaza DR; I-205 Exit 30,Vancouver,WA,98662,(360) 553-3739,-122.592408,45.649408
"Walmart Supercenter - Woodland,",#3742,1486 Dike Access Rd,Woodland,WA,98674,(360) 841-9131,-122.761109,45.928579
"Walmart Supercenter - Yakima,",#5078,6600 W Nob Hill Blvd,Yakima,WA,98908,(509) 966-0478,-120.597043,46.583911
"Walmart Supercenter - Yelm,",#3705,17100 State Route 507 Se,Yelm,WA,98597,(360) 400-8050,-122.577568,46.933837
"Walmart Supercenter - Germantown,",#1515,W 190 N 9855 Appleton Ave,Germantown,WI,53022,(262) 255-1285,-88.14484,43.19616
"Walmart Supercenter - Greendale,",#5668,5301 S 76th St,Greendale,WI,53129,(414) 978-9016 (NOP),-88.008903,42.948102
"Walmart Supercenter - Hartford,",#5463,1220 Thief St,Hartford,WI,53027,(262) 670-5803,-88.401105,43.32427
"Walmart Supercenter - Jefferson,",#3499,1520 State Hwy 26,Jefferson,WI,53549,(920) 674-2258,-88.809012,42.987486
"Walmart Supercenter - Ladysmith,",#4281,800 West 10th St South,Ladysmith,WI,54848,(715) 532-2039,-91.112857,45.457211
"Walmart Supercenter - Medford,",#3643,1010 N 8th St,Medford,WI,54451,(715) 748-9000,-90.331661,45.153526
"Wm Nbrhd Mkt - Milwaukee,",#5697,7025 W Main St,Milwaukee,WI,53214,(414) 203-0392,-88.001314,43.025755
"Walmart Supercenter - Monona,",#3857,2151 Royal Ave,Monona,WI,53713,(608) 226-0913,-89.351686,43.042716
"Wm Nbrhd Mkt - Mt Pleasant,",#5695,5625 Washington Ave,Mt Pleasant,WI,53406,(262) 504-2048,-87.848373,42.717918
"Walmart Supercenter - Muskego,",#4677,W 159 S 6530 Moorland Rd,Muskego,WI,53150,(414) 209-0317,-88.111735,42.926598
"Walmart Supercenter - South Milwaukee,",#5667,222 N Chicago Ave,South Milwaukee,WI,53172,(414) 501-1121,-87.860878,42.927656
"Wm Nbrhd Mkt - Waukesha,",#5698,S14 W22605 Coral Dr,Wauhesha,WI,53186,(262) 225-6300,-88.198648,43.016611
"Wm Nbrhd Mkt - Wauwatose,",#3030,3850 N 124th St; Hwy 45 Exit 44,Wauwatosa,WI,53222,(414) 203-4362,-88.066269,43.086953
"Walmart Supercenter - West Milwaukee,",#5669,4140 W Greenfield,West Milwaukee,WI,53215,(414) 978-2004 (NOP),-87.96547,43.017277
"Walmart Supercenter - Wisconsin Dells , Gas,",#3505,130 Commerce St,Wisconsin Dells,WI,53965,(608) 253-3490,-89.812308,43.585706
"Walmart Pharmacy/Clinic - Charleston,",#2219,2500 Cherokee Ave Se,Charleston,WV,25304,(304) 342-0166,-81.614651,38.331866
"Walmart Supercenter - Crosslanes,",#2576,100 Nitro Marketplace,Crosslanes,WV,25313,(304) 769-0100,-81.808587,38.411797
"Walmart Supercenter - Fayetteville,",#1360,204 Town Center Rd,Fayetteville,WV,25840,(304) 574-1086,-81.120638,38.034159
"Walmart Supercenter - Kingwood,",#4372,100 Walmart Dr,Kingwood,WV,26537,(304) 329-4020,-79.733975,39.48625
"Walmart Supercenter - Casper (W) ,",#3778,4255 Cy Ave,Casper,WY,82604,(307) 232-9593,-106.373175,42.818103
"Wm Nbrhd Mkt - Birmingham ,",#4504,312 Palisades Blvd,Birmingham,AL,35209,(205) 870-8101,-86.820963,33.467775
"Walmart Supercenter - Millbrook ,",#4318,145 Kelley Blvd,Millbrook,AL,36054,(334) 285-0311,-86.399215,32.494634
"Walmart Supercenter - Montgomery,",#4407,10710 Chantilly Pkwy,Montgomery,AL,36117,(334) 272-7377,-86.133813,32.355393
"Walmart Supercenter - Montgomery (C) , Gas/Diesel,",#5348,851 Ann St,Montgomery,AL,36107,(334) 223-7177,-86.269382,32.370347
"Wm Nbrhd Mkt - Fayetteville ,",#5737,3475 W Black Forest Dr,Fayetteville,AR,72704,(479) 442-1778,-94.20988,36.076839
"Wm Nbrhd Mkt - Fort Smith ,",#2744,4900 Rogers Ave.-suite 101j,Fort Smith,AR,72903,(479) 484-9122,-94.37788,35.364696
"Wm Nbrhd Mkt - Little Rock,",#5666,2510 Cantrell Rd,Little Rock,AR,72202,(501) 707-3602,-92.303559,34.758211
"Walmart Supercenter - Lonoke,",#0169,322 Brownsville Loop,Lonoke,AR,72086,(501) 676-3191,-91.892926,34.805371
"Walmart Supercenter - North Little Rock , Gas/Diesel,",#1105,4450 E Mccain Blvd,North Little Rock,AR,72117,(501) 945-2700,-92.214805,34.787428
"Walmart Express - Rogers ,",#5837,5000 Pauline Whitaker Pkwy,Rogers,AR,72758,(479) 254-1004,-94.18581,36.296098
"Walmart Supercenter - Benson ,",#3807,201 South Prickly Pear Ave.,Benson,AZ,85602,(520) 586-0742,-110.31409,31.96951
"Walmart Supercenter - Buckeye,",#3407,1060 South Watson,Buckeye,AZ,85326,(623) 474-6728,-112.559167,33.43785
"Walmart Supercenter - Flagstaff ,",#4252,2601 E Huntington Dr,Flagstaff,AZ,86004,(928) 774-3409,-111.614861,35.198849
"Walmart Supercenter - Phoenix , Gas,",#5190,2501 West Happy Valley Rd,Phoenix,AZ,85085,(623) 780-5702,-112.112877,33.709235
"Walmart Supercenter - Sahuarita ,",#1411,18680 S Nogales Hwy,Sahuarita,AZ,85629,(520) 625-3808,-110.981827,31.911651
"Walmart - Tucson,",#5626,1260 East Tucson Marketplace,Tucson,AZ,85713,(420) 917-0108,-110.95159,32.18622
"Wm Nbrhd Mkt - Tucson ,",#4473,2175 West Ruthrauff Rd,Tucson,AZ,85705,(520) 292-2542,-111.012969,32.293638
"Walmart Supercenter - Tucson, (Marana),",#5031,8280 North Cortaro,Tucson,AZ,85743,(520) 744-3652,-111.090062,32.355598
"Walmart Supercenter - Yuma ,",#4325,8151 East 32nd St,Yuma,AZ,85365,(928) 344-5974,-114.493401,32.669209
"Wm Nbrhd Mkt - Anaheim,",#5640,1120 S Anaheim Blvd,Anaheim,CA,92805,(657) 208-5201,-117.907932,33.819176
"Walmart Supercenter - Anderson ,",#5133,5000 Rhonda Rd,Anderson,CA,96007,(530) 378-0244,-122.288763,40.431879
"Wm Nbrhd Mkt - Downey,",#5603,12270 Paramount Blvd,Downey,CA,90242,(562) 622-4891,-118.148201,33.928275
"Walmart Supercenter - Encinitas,",#5886,1550 Leucadia Blvd,Encinitas,CA,92024,(760) 704-0243,-117.265851,33.068309
"Walmart - Fremont (W) ,",#5426,40580 Albrae St,Fremont,CA,94538,(510) 440-8060,-121.986147,37.519426
"Wm Nbrhd Mkt - Granite Bay,",#5980,4080 Douglas Blvd,Granite Bay,CA,95746,(916) 380-3252,-121.224949,38.743124
"Wm Nbrhd Mkt - Hayward,",#5631,2480 Whipple Rd,Hayward,CA,94544,99999999999,-122.064122,37.606462
"Walmart Supercenter - Hesperia,",#4340,13401 Main St,Hesperia,CA,92345,(760) 948-4851,-117.371471,34.425964
"Walmart Supercenter - Irvine,",#5644,16555 Von Karman Ave,Irvine,CA,92606,(949) 623-7467,-117.834973,33.698287
"Wm Nbrhd Mkt - Lincoln,",#5979,255 Lincoln Blvd,Lincoln,CA,95648,(916) 209-5129,-121.292341,38.888501
"Wm Nbrhd Mkt - Panorama City,",#5605,14530 Nordhoff St,Panorama City,CA,91402,(818) 672-0142,-118.449074,34.235011
"Wm Nbrhd Mkt - Rancho Santa Margarita,",#5600,30491 Avenida De Las Flores,Rancho Santa Margarita,CA,92688,(949) 207-5070,-117.600935,33.64079
"Walmart - Richmond ,",#3455,1400 Hilltop Mall Rd,Richmond,CA,94806,(510) 669-1342,-122.328368,37.978975
"Walmart Supercenter - Rosemead ,",#5154,1827 Walnut Grove Blvd,Rosmead,CA,91770,(626) 307-1010,-118.0839,34.050379
"Walmart Supercenter - Palm City,",#5938,575 Saturn Blvd,San Diego,CA,92154,(619) 205-6140,-117.089283,32.586185
"Walmart - San Leandro ,",#5434,15555 Hesperian Blvd,San Leandro,CA,94579,(510) 351-0108,-122.13035,37.688639
"Wm Nbrhd Mkt - San Ramon,",#5610,9100 Alcosta Blvd,San Ramon,CA,94583,(925) 364-9207,-121.929542,37.729652
"Walmart Supercenter - Stockton ,",#3352,10355 Trinity Pkwy,Stockton,CA,95219,(209) 235-0558,-121.375781,38.050891
"Walmart Supercenter - Victorville ,",#1588,11896 Amargosa Rd,Victorville,CA,92395,(760) 951-5005,-117.352133,34.465932
"Walmart Supercenter - Golden/Evergreen ,",#2293,952 Swede Gulch Rd,Golden,CO,80439,(303) 526-1649,-105.328518,39.70049
"Walmart Supercenter - Longmont ,",#0905,2285 E Ken Pratt Blvd,Longmont,CO,80504,(303) 678-0803,-105.047837,40.158656
"Walmart Supercenter - Monument,",#3227,16218 Jackson Creek Pkwy,Monument,CO,80132,(719) 484-0912,-104.8535944,39.0663666
"Wm Nbrhd Mkt - Thornton,",#3019,850 E 88th Ave,Thornton,CO,80229,(303) 287-4404,-104.975893,39.855331
"Walmart Supercenter - Timnath, Gas/Diesel,",#4599,4500 Weitzel St,Timnath,CO,80547,(970) 484-0328,-104.990272,40.525855
"Walmart Supercenter - Westminster ,",#3867,200 West 136th Ave,Westminster,CO,80234,(720) 929-1758,-104.990644,39.941656
"Walmart - Milford,",#5294,1365 Boston Post Rd,Milford,CT,06460,(203) 301-0559,-73.034021,41.240068
"Walmart - West Haven,",#3803,515 Sawmill Rd,West Haven,CT,06516,(203) 931-2081,-72.976688,41.269997
"Walmart Supercenter - Boynton Beach,",#5911,3625 Federal Hwy,Boynton Beach,FL,33435,(561) 600-3088,-80.06404,26.49211
"Walmart Supercenter - Bradenton,",#5727,5810 Ranch Lake Rd,Bradenton,FL,34202,(941) 799-5538,-82.456661,27.437742
"Walmart Supercenter - Gibsonton , Gas/Diesel,",#5300,9205 Gibsonton Dr,Gibsonton,FL,33534,(813) 672-0739,-82.35421,27.848314
"Wm Nbrhd Mkt - Hialeah Gardens,",#5615,11800 Hialeah Gardens Blvd,Hialeah Gardens,FL,33018,(305) 913-1168,-80.35284,25.882119
"Walmart Supercenter - Jacksonville,",#4444,10251 Shops Ln,Jacksonville,FL,32258,(904) 288-8211,-81.556518,30.178441
"Walmart Supercenter - Jacksonville (N),",#3702,13227 City Square Dr,Jacksonville,FL,32218,(904) 751-5552,-81.639618,30.477584
"Walmart Supercenter - Jacksonville (Clinton) , Gas/Diesel,",#3309,4250 Phillips Hwy,Jacksonville,FL,32207,(904) 737-7007,-81.629744,30.281628
"Walmart Supercenter - Lake Park , Gas/Diesel,",#3348,101 N Congress Ave,Lake Park,FL,33403,(561) 842-8113,-80.087339,26.79495
"Walmart Supercenter - Miami Gardens ,",#3397,17650 Norhwest 2nd Ave.,Miami Gardens,FL,33169,(305) 651-4661,-80.20708,25.93681
"Wm Nbrhd Mkt - Orlando ,",#5875,12550 Orange Blossom Trl,Orlando,FL,32837,(407) 541-1273,-81.405387,28.38202
"Walmart Supercenter - Palm Springs,",#5882,2765 10th Ave N,Palm Springs,FL,33461,(561) 223-4357 (NOP),-80.08436,26.62954
"Walmart Supercenter - Pembroke Pines,",#5932,12800 Pines Blvd,Pembroke Pines,FL,33027,(954) 378-1542 (NOP),-80.317574,26.005371
"Walmart Supercenter - Port Charlotte (E) , Gas/Diesel,",#3349,375 Kings Hwy,Port Charlotte,FL,33983,(941) 625-1201,-82.046416,27.024354
"Walmart Supercenter - Port St. Lucie ,",#4260,1850 S.w. Gatlin Blvd,Port St. Lucie,FL,34953,(772) 336-8212,-80.404946,27.263307
"Wm Nbrhd Mkt - Riverview,",#5622,10863 Bloomingdale Blvd,Riverview,FL,33578,(813) 261-3596,-82.320071,27.892335
"Walmart Supercenter - Tallahassee,",#4427,3221 N Monroe St,Tallahassee,FL,32303,(850) 562-8383,-84.316981,30.48777
"Wm Nbrhd Mkt - Tampa ,",#5760,1601 West Kennedy Blvd,Tampa,FL,33606,(813) 254-6125,-82.475736,27.945392
"Wm Nbrhd Mkt - Tampa ,",#5221,8885 North Florida Ave,Tampa,FL,33604,(813) 932-0562,-82.458216,28.032038
"Walmart Supercenter - West Palm Beach,",#4446,4225 45th St,West Palm Beach,FL,33407,(561) 683-8300,-80.103231,26.761443
"Walmart Express - Atlanta,",#5010,1030 Delta Blvd,Atlanta,GA,30354,(404) 305-8881,-84.421991,33.657242
"Walmart Supercenter - Atlanta,",#3775,1801 Howell Mill Rd Nw,Atlanta,GA,30318,(404) 352-5252,-84.411515,33.803171
"Walmart Supercenter - Atlanta (Gresham),",#3709,2427 Gresham Rd Se,Atlanta,GA,30316,(404) 244-3034,-84.311831,33.718828
"Walmart Supercenter - Atlanta,",#3008,835 Martin Luther King Jr Dr,Atlanta,GA,30314,(404) 460-2703,-84.414541,33.755166
"Walmart Supercenter - Buford (E) , Gas/Diesel,",#3786,3250 Sardis Church Rd,Buford,GA,30519,(678) 546-6464,-83.92101,34.077988
"Walmart Supercenter - Covington,",#0459,10300 Industrial Blvd,Covington,GA,30015,(770) 787-8030,-83.82934,33.61123
"Walmart Supercenter - Ellenwood,",#3609,2940 Anvil Block Rd,Ellenwood,GA,30294,(404) 361-6811,-84.292897,33.635338
"Walmart Supercenter - Grovetown,",#5735,5010 Steiner Way,Grovetown,GA,30813,(706) 860-8883,-82.19568,33.480845
"Walmart Supercenter - Lithonia , Gas/Diesel,",#1340,5401 Fairington Rd,Lithonia,GA,30038,(770) 593-3540,-84.167617,33.701298
"Walmart - Locust Grove, Gas/Diesel,",#5709,4949 Bill Gardner Pkwy,Locust Grove,GA,30248,(678) 734-3395,-84.120028,33.357762
"Walmart Supercenter - Oakwood,",#3627,3875 Mundy Mill Rd,Oakwood,GA,30566,(770) 535-6543,-83.873808,34.231819
"Walmart Supercenter - Stockbridge (S)  , Gas/Diesel,",#3402,1400 Hudson Bridge Rd,Stockbridge,GA,30281,(770) 474-0123,-84.235122,33.506642
"Walmart - Honolulu,",#3478,700 Keeaumoku St,Honolulu,HI,96814,(808) 955-8441,-157.842231,21.29528
"Walmart - Kapolei,",#3883,91-600 Farrington Hwy,Kapolei,HI,96707,(808) 206-9069,-158.073929,21.342515
"Walmart Supercenter - Osceola,",#4606,2400 College Dr,Osceola,IA,50213,(641) 342-1650,-93.799986,41.023286
"Walmart Supercenter - West Des Moines,",#3762,6365 Stagecoach Dr,West Des Moines,IA,50266,(515) 453-2747,-93.796485,41.558832
"Walmart Supercenter - Nampa (NE), Gas,",#3739,5875 East Franklin Rd,Nampa,ID,83687,(208) 461-6481,-116.510938,43.603899
"Walmart Supercenter - Smelterville,",#4249,583 Commerce Dr,Smelterville,ID,83868,(208) 783-0426,-116.185522,47.544743
"Walmart Supercenter - Bourbonnais,",#1307,2080 No. St. Route 50,Bourbonnais,IL,60914,(815) 937-5100,-87.847576,41.190431
"Walmart Supercenter - Chicago,",#5965,10900 S Doty Ave,Chicago,IL,60628,(773) 344-9016,-87.597459,41.69615
"Walmart Supercenter - Collinsville,",#0361,1040 Collinsville Crossing,Collinsville,IL,62234,(618) 344-4480,-90.016944,38.67543
"Walmart Supercenter - Country Club Hills,",#5486,4005 West 167th St,Country Club Hills,IL,60478,(708) 647-1689,-87.715901,41.58456
"Walmart Supercenter - Kankakee,",#4323,505 Riverstone Pkwy,Kankakee,IL,60901,(815) 802-1884,-87.86092,41.079471
"Walmart Supercenter - Romeoville,",#4531,420 Weber Rd,Romeoville,IL,60446,(815) 439-1666,-88.12555,41.607423
"Walmart Supercenter - Columbus (N),",#4216,2025 Merchant Mile,Columbus,IN,47201,(812) 376-8680,-85.9455,39.19788
"Walmart Supercenter - Greenwood, Gas/Diesel,",#3435,1133 No. Emerson Rd,Greenwood,IN,46143,(317) 885-9059,-86.079982,39.634923
"Wm Nbrhd Mkt - Indianapolis ,",#5408,3805 South Keystone Ave,Indianapolis,IN,46227,(317) 786-3485,-86.119706,39.71109
"Walmart Supercenter - Indianapolis,",#3781,4545 Lafayette Rd,Indianapolis,IN,46254,(317) 328-0325,-86.246301,39.838462
"Walmart Supercenter - Terre Haute,",#4235,2399 South State Rd 46,Terre Haute,IN,47803,(812) 872-2520,-87.335776,39.438713
"Walmart Supercenter - Gardner,",#5307,1725 East Santa Fe St,Gardner,KS,66030,(913) 884-8004,-94.891749,38.809102
"Wm Nbrhd Mkt - Overland Park ,",#5180,10303 Metcalf Ave,Overland Park,KS,66212,(913) 642-3544,-94.666018,38.940808
"Wm Nbrhd Mkt - Shawnee ,",#5308,11010 West 74th Terrace,Shawnee,KS,66203,(913) 268-3356,-94.715461,38.994457
"Walmart Supercenter - Lexington , Gas/Diesel,",#3894,2350 Grey Lag Way Rd,Lexington,KY,40509,(859) 263-0999,-84.423036,38.037663
"Wm Nbrhd Mkt - Louisville ,",#4523,201 Blankenbaker Pkwy,Louisville,KY,40243,(502) 244-2904,-85.545131,38.24235
"Walmart Supercenter - Middletown,",#4450,12981 Shelbyville Rd,Middletown,KY,40243,(502) 244-2551,-85.513144,38.246442
"Walmart Supercenter - Amite , Gas/Diesel,",#3616,1200 West Oak St,Amite,LA,70422,(985) 748-7707,-90.529219,30.728076
"Wm Nbrhd Mkt - Baton Rouge ,",#5327,9830 Old Hammond Hwy,Baton Rouge,LA,70816,(225) 248-1616,-91.079391,30.431447
"Wm Nbrhd Mkt - Kenner,",#3703,3520 Williams Blvd,Kenner,LA,70065,(504) 466-6882,-90.239015,30.020321
"Walmart Supercenter - Lake Charles, Gas,",#0469,3415 Gerstner Memorial Blvd,Lake Charles,LA,70607,(337) 477-7799,-93.177377,30.195556
"Walmart Supercenter - Leominster,",#2964,11 Jungle Rd,Leominster,MA,01453,(978) 466-1313,-71.727704,42.491976
"Walmart Supercenter - Arbutus,",#3720,3601 Washington Blvd,Arbutus,MD,21227,(410) 737-7700,-76.669396,39.248375
"Walmart Supercenter - Severn,",#1875,407 George Clauss Blvd,Severn,MD,21144,(410) 582-9990,-76.64787,39.146276
"Walmart Supercenter - Waterville,",#2013,80 Waterville Commons Dr,Waterville,ME,04901,(207) 877-8774,-69.644303,44.569368
"Walmart Supercenter - Clio , Gas/Diesel,",#4243,11493 North Linden Rd,Clio,MI,48420,(810) 564-3149,-83.776242,43.174764
"Walmart Supercenter - Fowlerville,",#4540,970 Gehringer Dr,Foelerville,MI,48836,(517) 223-8605,-84.077709,42.648042
"Walmart Supercenter - Livonia,",#2631,29555 Plymouth Rd,Livonia,MI,48150,(734) 524-0577,-83.336405,42.367507
"Walmart Supercenter - Austin,",#4257,1000 18th Ave. Nw,Austin,MN,55912,(507) 434-8176,-92.987098,43.686934
"Walmart Supercenter - Brooklyn Center,",#5625,1200 Shingle Creek Crossing,Brooklyn Center,MN,55430,(763) 354-1941,-93.316911,45.057023
"Walmart Supercenter - Sauk Center,",#4253,205 12th St. S.,Sauk Center,MN,56378,(320) 352-7954,-94.946898,45.72208
"Walmart Supercenter - Kansas City,",#4553,11601 East Us 40 Hwy,Kansas City,MO,64133,(816) 313-1183,-94.44279,39.045669
"Walmart Supercenter - St. Louis,",#1265,10741 West Florissant,St. Louis,MO,63136,(314) 521-3422,-90.282685,38.766003
"Walmart Supercenter - Laurel,",#4412,101 Bernhardt,Laurel,MT,59044,(406) 628-3000,-108.760286,45.666646
"Walmart Supercenter - Belmont , Gas/Diesel,",#5085,701 Hawley Ave,Belmont,NC,28012,(704) 825-8885,-81.035095,35.254508
"Walmart Express - Benson, Gas,",#5138,702 S wall St,Benson,NC,27504,(919) 207-4024,-78.553584,35.376804
"Walmart Supercenter - Concord,",#4574,5825 Thunder Rd,Concord,NC,28027,(704) 979-2540,-80.724013,35.37742
"Walmart Supercenter - Conover,",#4224,201 Zelkova Court Nw,Conover,NC,28613,(828) 464-4441,-81.210043,35.72668
"Walmart Supercenter - Durham,",#1614,1525 Glenn School Rd,Durham,NC,27704,(919) 688-3595,-78.842048,36.028776
"Walmart Express - Four Oaks, Gas,",#5024,6043 Hwy 301,Four Oaks,NC,27524,(919) 963-1256,-78.421842,35.446715
"Walmart Supercenter - Garner,",#5743,5141 Hwy 42,Garner,NC,27529,(919) 772-7373,-78.554964,35.609188
"Walmart Supercenter - High Point ,",#1613,2628 S Main St,High Point,NC,27263,(336) 869-9633,-79.987999,35.926116
"Walmart Supercenter - Raleigh ,",#4484,8000 Town Dr,Raleigh,NC,27616,(919) 424-6235,-78.566372,35.869894
"Walmart Supercenter - Weaverville,",#4334,25 Northbridge Commons,Weaverville,NC,28787,(8280 645-5028,-82.578265,35.703458
"Walmart Supercenter - Fargo,",#4352,3757 55th Ave S,Fargo,ND,58104,(701) 526-1167,-96.84265,46.8019
"Walmart - Edison,",#5201,2220 Route 27,Edison,NJ,08818,(732) 650-1297,-74.377097,40.531438
"Walmart - Flanders,",#3291,40 International Dr South,Flanders,NJ,07836,(973) 347-7400,-74.708074,40.882796
"Walmart Supercenter - Kearny,",#5447,150 Harrison Ave,Kearny,NJ,07032,(201) 955-0280,-74.135969,40.747835
"Walmart - Riverdale,",#3443,48 Route 23 North,Riverdale,NJ,07457,(973) 835-5812,-74.313328,40.992282
"Walmart Supercenter - Albuquerque,",#5491,2266 Wyoming Blvd Ne,Albuquerque,NM,87112,(505) 293-8878,-106.548508,35.105801
"Walmart Supercenter - Edgewood,",#4201,66 State Rd #344,Edgewood,NM,87015,(505) 286-3043,-106.18941,35.07071
"Walmart Supercenter - Santa Fe,",#3423,5701 Herra Dr,Santa Fe,NM,87507,(505) 424-9304,-106.032518,35.618852
"Walmart Supercenter - Truth Or Consequences,",#4341,2001 H.r. Ashbaugh Dr,Truth Or Consequences,NM,87901,(575) 894-0343,-107.2496,33.1533
"Walmart Supercenter - Fernley,",#4370,1550 East Newlands Dr,Fernley,NV,89408,(775) 575-4832,-119.2318,39.61078
"Wm Nbrhd Mkt - Henderson ,",#3354,1401 American Pacific Dr,Henderson,NV,89074,(702) 564-9444,-115.047755,36.041072
"Wm Nbrhd Mkt - Las Vegas (Lamb) ,",#3355,1400 S Lamb Blvd,Las Vegas,NV,89104,(702) 431-1180,-115.079647,36.156693
"Walmart Supercenter - Mesquite ,",#3847,1120 West Pioneer Blvd,Mesquite,NV,89027,(702) 346-0208,-114.107398,36.805842
"Walmart Supercenter - Amherst,",#2210,3290 Sheridan Dr,Amherst,NY,14226,(716) 691-0195,-78.811757,42.981589
"Walmart Supercenter - Catskill ,",#2351,30 Catskill,Catskill,NY,12414,(518) 943-9423,-73.881764,42.212219
"Walmart - Commack,",#5202,85 Crooked Hill Rd,Commack,NY,11725,(631) 864-0806,-73.290884,40.811899
"Walmart Supercenter - Horseheads,",#1976,1400 CR 64,Horseheads,NY,14845,(607) 739-1714,-76.855804,42.158469
"Walmart Supercenter - Painted Post,",#2992,3217 Silverback Ln,Painted Post,NY,14870,(607) 937-9627,-77.105822,42.154409
"Walmart Supercenter - Rensselaer,",#1940,279 Troy Rd,Rennsalaer,NY,12144,(518) 283-3055,-73.700752,42.641362
"Walmart Supercenter - Saratoga Springs ,",#2056,16 Old Glick Rd,Saratoga Springs,NY,12866,(518) 581-8035,-73.748639,43.103432
"Walmart Supercenter - Victor,",#2785,441 Commerce Dr,Victor,NY,14564,(585) 398-6038,-77.440428,43.0202
"Walmart - White Plains,",#3441,275 Main St,White Plains,NY,10601,(914) 285-1070,-73.765376,41.034337
"Walmart Supercenter - Bedford,",#4342,22209 Rockside Rd,Bedford,OH,44146,(216) 587-0110,-81.53106,41.406678
"Walmart Supercenter - Cincinnati,",#3656,1143 Smiley Ave,Cincinnati,OH,45240,(513) 825-4423,-84.520395,39.296954
"Walmart Supercenter - Cincinnati,",#3749,2801 Cunningham Dr,Cincinnati,OH,45241,(513) 769-1124,-84.4284,39.249631
"Walmart Supercenter - Cleveland ,",#4285,3400 Steelyard Dr,Cleveland,OH,44109,(216) 661-2406,-81.691336,41.461889
"Walmart Supercenter - Dayton,",#3783,3465 York Commons Blvd,Dayton,OH,45414,(937) 454-6240,-84.195188,39.845986
"Walmart Supercenter - Dayton ,",#1504,8800 Kingsridge Dr,Dayton,OH,45458,(937) 435-2222,-84.212274,39.63031
"Walmart Supercenter - Dublin,",#2471,5900 Britton Pkwy,Dublin,OH,43016,(614) 717-9660,-83.138616,40.073608
"Walmart Supercenter - Findlay (W) , Gas/Diesel,",#3840,1161 Trenton Ave,Findlay,OH,45840,(419) 425-2186,-83.67237,41.056828
"Walmart Supercenter - Franklin , Gas/Diesel,",#3784,1275 E 2nd St,Franklin,OH,45005,(937) 704-0568,-84.27789,39.565471
"Walmart Supercenter - Holland (toledo),",#3445,1355 South Mccord Rd,Holland,OH,43528,(419) 867-0155,-83.700773,41.61634
"Walmart Supercenter - Kent,",#3722,250 Tallmade Rd,Kent,OH,44240,(330) 673-3142,-81.385115,41.097747
"Walmart Supercenter - Mason,",#1441,5303 Bowen Dr,Mason,OH,45040,(513) 583-9330,-84.317487,39.311474
"Walmart Supercenter - Milford,",#5499,201 Chamber Dr,Milford,OH,45150,(513) 248-0067,-84.278638,39.159508
"Walmart Supercenter - Perrysburg,",#4479,10400 Fremont Pike,Perrysburg,OH,43551,(419) 874-0291,-83.593089,41.549218
"Walmart Supercenter - West Chester ,",#2309,8288 Cincinnati Dayton Rd,West Chester,OH,45069,(513) 777-2397,-84.393539,39.345324
"Walmart Supercenter - Youngstown,",#3860,200 Goldie Rd,Youngstown,OH,44505,(330) 759-2066,-80.662879,41.14733
"Walmart Supercenter - Elk City,",#0134,20221 E 1110 County Rd,Elk City,OK,73644,(580) 225-3003,-99.377598,35.409638
"Walmart Supercenter - OklahomaCity,",#0544,5401 Tinker Diagonal St,Oklahoma City,OK,73115,(405) 670-1007,-97.424881,35.447736
"Wm Nbrhd Mkt - Tulsa,",#5093,4404 South Peoria Ave E,Tulsa,OK,74105,(918) 749-1577,-95.9765,36.099289
"Walmart Supercenter - Albany ,",#5396,1330 Goldfish Farm SE,Albany,OR,97322,(541) 971-4052,-123.049754,44.62718
"Walmart - Happy Valley,",#5440,10000 SE 82nd Ave.,Portland,OR,97015,(503) 788-4748,-122.577162,45.450434
"Wm Nbrhd Mkt - Springfield,",#4178,2730 Gateway St,Springfield,OR,97477,(541) 632-7087,-123.040255,44.070789
"Walmart Supercenter - Duncansville,",#4348,200 Commerce Dr,Duncansville,PA,16635,(814) 693-0531,-78.431514,40.370646
"Walmart Supercenter - Etters,",#4404,50 Newberry Commons,Etters,PA,17319,(717) 932-4384,-76.81393,40.149121
"Walmart Supercenter - King Of Prussia,",#4687,275 N. Gulph Rd,King Of Prussia,PA,19406,(610) 768-0530,-75.398363,40.084206
"Walmart Supercenter - Philadelphia (S),",#2141,1675 S Christopher Columbus Blvd,Philadelphia,PA,19148,(215) 468-4220,-75.142675,39.925279
"Walmart Supercenter - Philadelphia,",#5891,2200 Wheatsheaf Ln,Philadelphia,PA,19137,(215) 613-2236,-75.091943,39.99722
"Walmart Supercenter - Springfield,",#5881,400 S State Rd,Springfield,PA,19064,(610) 605-3154,-75.355381,39.93801
"Walmart Supercenter - Taylor,",#4276,1325 Main,Taylor,PA,18517,(570) 309-3510,-75.68825,41.396037
"Walmart Supercenter - Waynesburg,",#5446,405 Murtha Dr,Waynesburg,PA,15370,(724) 627-3496,-80.128791,39.894075
"Walmart Supercenter - Coventry ,",#2283,650 Centre Of New England Blvd,Coventry,RI,2816,(401) 823-7780,-71.566457,41.664171
"Walmart - Providence ,",#3301,51 Silver Spring St,Providence,RI,2904,(401) 272-5047,-71.416721,41.844771
"Walmart Supercenter - Columbia, Gas/Diesel,",#4379,1326 Bush River Rd,Columbia,SC,29210,(803) 750-3097,-81.108183,34.029984
"Walmart Supercenter - Columbia,",#4506,321 Killian Rd,Columbia,SC,29203,(803) 754-8884,-80.966261,34.13768
"Walmart Supercenter - Greenville,",#4583,3925 Pelham Rd,Greenville,SC,29615,(864) 288-8081,-82.26864,34.86002
"Walmart Supercenter - Bartlett,",#0950,8400 Us Hwy 64,Bartlett,TN,38133,(901) 382-6101,-89.782892,35.206317
"Walmart Supercenter - Clinton,",#4635,150 Tanner Ln,Clinton,TN,37716,(865) 457-4121,-84.086962,36.169075
"Wm Nbrhd Mkt - Madison,",#5107,109 Gallatin Pike North,Madison,TN,37115,(615) 865-6119,-86.713058,36.264152
"Walmart Supercenter - Mount Juliet,",#4482,300 Pleasant Grove Rd,Mount Juliet,TN,37122,(615) 758-1121,-86.51847,36.1786
"Walmart Supercenter - Nashville,",#5616,2421 Powell Ave,Nashvile,TN,37204,(615) 383-3844,-86.768603,36.110824
"Walmart Supercenter - Nashville,",#4435,3458 Dickerson Pike,Nashville,TN,37207,(615) 873-2222,-86.761612,36.244171
"Walmart Supercenter - Ooltewah , Gas/Diesel,",#3835,5588 Little Debbie Pkwy,Ooltewah,TN,37363,(423) 238-1036,-85.064042,35.081591
"Walmart Supercenter - Sweetwater ,",#4166,935 Hwy 11 South,Sweetwater,TN,37874,(423) 337-7636,-84.476337,35.584308
"Walmart Supercenter - Unicoi , Gas/Diesel,",#3852,110 Rocky Bottom Rd,Unicoi,TN,37692,(423) 743-8780,-82.373421,36.18769
"Walmart Supercenter - White House,",#4483,222 Wilkinson Ln,White House,TN,37188,(615) 672-6773,-86.677953,36.471763
"Walmart Supercenter - Arlington,",#3284,4800 Us 287,Arlington,TX,76017,(817) 563-1005,-97.20848,32.66638
"Wm Nbrhd Mkt - Arlington,",#3870,5401 Park Springs Blvd,Arlington,TX,76017,(817) 466-8217,-97.165563,32.659508
"Walmart Supercenter - Benbrook,",#4509,8840 Benbrook Hwy,Benbrook,TX,76126,(682) 233-6820,-97.467525,32.677686
"Walmart Supercenter - Buda , Gas/Diesel,",#4219,690 Old San Antonio Rd,Buda,TX,78610,(512) 295-1670,-97.823976,30.086566
"Wm Nbrhd Mkt - Dallas,",#5042,12789 Midway Rd,Dallas,TX,75244,(972) 488-8862,-96.838985,32.922105
"Wm Nbrhd Mkt - Dallas,",#2105,12801 Midway Rd,Dallas,TX,75244,(972) 980-2195,-96.838556,32.92247
"Walmart Supercenter - Dallas,",#5810,7075 W Wheatland Rd,Dallas,TX,75211,(800) 925-6278,-96.94414,32.647871
"Walmart Supercenter - Dallas,",#2427,9301 Forest Lane Ave,Dallas,TX,75243,(972) 437-9146,-96.738719,32.91
"Walmart Supercenter - Denton,",#4627,2750 W University Dr,Denton,TX,76201,(940) 735-3119,-97.167842,33.2323
"Walmart Supercenter - El Paso,",#3763,12236 Montana Ave,El Paso,TX,79938,(915) 255-4031,-106.26233,31.805982
"Wm Nbrhd Mkt - Fort Worth,",#5181,6513 Meadowbrook Dr,Fort Worth,TX,76112,(817) 492-4468,-97.217686,32.746527
"Walmart Supercenter - Fort Worth (W) , Gas/Diesel,",#3773,9500 Clifford St,Fort Worth,TX,76108,(817) 367-0042,-97.483315,32.765024
"Walmart Supercenter - Garland,",#1800,1801 Marketplace Dr,Garland,TX,75041,(972) 279-8700,-96.652141,32.862091
"Walmart Supercenter - Houston,",#4526,4412 North Fwy,Houston,TX,77022,(713) 300-0511,-95.37909,29.8305
"Walmart Supercenter - Laredo,",#5713,2615 NE Bob Bullock Loop,Laredo,TX,78045,(956) 231-5575,-99.464083,27.611056
"Wm Nbrhd Mkt - Lewisville , Gas/Diesel,",#3287,1515 Fm 407,Lewisville,TX,75077,(972) 966-6215,-97.038004,33.072485
"Walmart Supercenter - Longview  , Gas/Diesel,",#3828,4006 Estes Pky,Longview,TX,75603,(903) 236-0947,-94.714521,32.437488
"Walmart Supercenter - Lubbock (Texas Tech) , Gas/Diesel,",#3826,1911 Marsha Sharp Freeway,Lubbock,TX,79415,(806) 747-3454,-101.857318,33.590697
"Walmart Supercenter - San Antonio (Brooks),",#5245,3302 Southeast Military Dr,San Antonio,TX,78223,(210) 337-1946,-98.433034,29.349498
"Walmart Supercenter - San Antonio (NE),",#2769,5626 Walzem Rd,San Antonio,TX,78218,(210) 507-0650,-98.375171,29.509369
"Walmart Supercenter - Westworth Village,",#0940,6770 Westworth Blvd,Westworth Village,TX,76114,(817) 570-9538,-97.433726,32.753885
"Walmart Supercenter - Centerville,",#3366,221 West Parrish Lane,Centerville,UT,84014,(801) 294-0587,-111.883622,40.920068
"Walmart Supercenter - Ogden,",#3789,1959 Wall Ave,Ogden,UT,84401,(801) 917-1026,-111.980692,41.232035
"Walmart Supercenter - South Jordan,",#2307,11328 So Jordan Gateway Rd,South Jordan,UT,84095,(801) 553-2266,-111.899824,40.54557
"Walmart Supercenter - Washington , Gas,",#1439,625 West Telegraph St,Washington City,UT,84780,(435) 628-2802,-113.51862,37.127321
"Walmart Supercenter - Alexandria,",#5753,6303 Richmond Hwy,Alexandria,VA,22306,(703) 253-9901,-77.077014,38.780396
"Walmart Supercenter - Dublin,",#1652,5225 Alexander Rd,Dublin,VA,24084,(540) 674-5385,-80.693353,37.083458
"Walmart Supercenter - Fairfax,",#5880,11181 Lee Hwy,Fairfax,VA,22030,(703) 995-5061,-77.332053,38.850212
"Walmart Supercenter - Zion Crossroads,",#4682,164 Camp Creek Pkwy,Gordonsville,VA,22942,(540) 832-1259,-78.210026,37.979435
"Walmart Supercenter - Norfolk,",#5488,7530 Tidewater Dr,Norfolk,VA,23505,(757) 480-0587,-76.253334,36.912868
"Walmart Supercenter - Portsmouth,",#3831,1098 Fredrick Blvd,Portsmouth,VA,23707,(757) 399-1795,-76.340676,36.829172
"Walmart Supercenter - Stafford,",#2438,217 Garrisonville Rd,Stafford,VA,22554,(540) 720-0059,-77.416742,38.471319
"Walmart Supercenter - Arlington,",#3757,4010 172nd St,Arlington,WA,98223,(360) 386-4608,-122.174168,48.150584
"Walmart Supercenter - Federal Way ,",#3794,34520 16th Ave South,Federal Way,WA,98003,(253) 835-4965,-122.310233,47.291501
"Wm Nbrhd Mkt - Vancouver,",#3145,2201 Grand Blvd,Vancouver,WA,98661,(360) 258-2015,-122.641056,45.63685
"Walmart Supercenter - Sheboygan ,",#3324,4433 Vanguard Dr,Sheboygan,WI,53083,(920) 459-9410,-87.767564,43.793084
"Walmart Supercenter - Huricane,",#4277,167 Progress Way,Huricane,WV,25526,(304) 562-0475,-82.021576,38.441043
"Walmart Supercenter - Martinsburg,",#4423,5680 Hammonds Mill Rd,Martinsburg,WV,25404,(304) 274-5176,-77.909434,39.543681
"Walmart Supercenter - Morgantown ,",#3215,6051 University Town Centre Dr,Morgantown,WV,26501,(304) 598-3239,-79.999692,39.645879
"Walmart Supercenter - Quincy,",#4278,1001 Warrior Way,Quincy,WV,25015,(304) 220-3001,-81.511783,38.206515
"Walmart Supercenter - Triadelphia,",#5088,450 Stewart Lane,Triadelphia,WV,26059,(304) 547-1726,-80.604315,40.05779
"Walmart Supercenter - Viera (Melbourne) , Gas/Diesel,",#3538,8500 N Wickham Rd And   I-95,Melbourne,FL,32940,NA,-80.723501,28.231259
"Walmart Supercenter - Edmond ,",#0389,1225 W   I-35 Frontage Rd,Edmond,OK,73013,NA,-97.427726,35.639943
